{"type":"FeatureCollection","features":[{"type":"Feature","id":0,"properties":{"revision":1,"category":0,"value":0},"geometry":{"type":"Point","coordinates":[-122.4194,37.7749]}},{"type":"Feature","id":1,"properties":{"revision":1,"category":1,"value":1},"geometry":{"type":"Point","coordinates":[-122.408874,37.774813]}},{"type":"Feature","id":2,"properties":{"revision":1,"category":2,"value":2},"geometry":{"type":"Point","coordinates":[-122.416825,37.778066]}},{"type":"Feature","id":3,"properties":{"revision":1,"category":3,"value":3},"geometry":{"type":"Point","coordinates":[-122.421786,37.777869]}},{"type":"Feature","id":4,"properties":{"revision":1,"category":0,"value":4},"geometry":{"type":"Point","coordinates":[-122.407879,37.774751]}},{"type":"Feature","id":5,"properties":{"revision":1,"category":1,"value":5},"geometry":{"type":"Point","coordinates":[-122.428057,37.769341]}},{"type":"Feature","id":6,"properties":{"revision":1,"category":2,"value":6},"geometry":{"type":"Point","coordinates":[-122.423864,37.77501]}},{"type":"Feature","id":7,"properties":{"revision":1,"category":3,"value":7},"geometry":{"type":"Point","coordinates":[-122.415498,37.767043]}},{"type":"Feature","id":8,"properties":{"revision":1,"category":0,"value":8},"geometry":{"type":"Point","coordinates":[-122.42625,37.766569]}},{"type":"Feature","id":9,"properties":{"revision":1,"category":1,"value":9},"geometry":{"type":"Point","coordinates":[-122.430471,37.77299]}},{"type":"Feature","id":10,"properties":{"revision":1,"category":2,"value":10},"geometry":{"type":"Point","coordinates":[-122.426603,37.778734]}},{"type":"Feature","id":11,"properties":{"revision":1,"category":3,"value":11},"geometry":{"type":"Point","coordinates":[-122.421758,37.780906]}},{"type":"Feature","id":12,"properties":{"revision":1,"category":0,"value":12},"geometry":{"type":"Point","coordinates":[-122.412926,37.7712]}},{"type":"Feature","id":13,"properties":{"revision":1,"category":1,"value":13},"geometry":{"type":"Point","coordinates":[-122.409273,37.781898]}},{"type":"Feature","id":14,"properties":{"revision":1,"category":2,"value":14},"geometry":{"type":"Point","coordinates":[-122.409863,37.784802]}},{"type":"Feature","id":15,"properties":{"revision":1,"category":3,"value":15},"geometry":{"type":"Point","coordinates":[-122.43108,37.769395]}},{"type":"Feature","id":16,"properties":{"revision":1,"category":0,"value":16},"geometry":{"type":"Point","coordinates":[-122.419147,37.766541]}},{"type":"Feature","id":17,"properties":{"revision":1,"category":1,"value":17},"geometry":{"type":"Point","coordinates":[-122.426825,37.780885]}},{"type":"Feature","id":18,"properties":{"revision":1,"category":2,"value":18},"geometry":{"type":"Point","coordinates":[-122.412562,37.777948]}},{"type":"Feature","id":19,"properties":{"revision":1,"category":3,"value":19},"geometry":{"type":"Point","coordinates":[-122.410691,37.783429]}},{"type":"Feature","id":20,"properties":{"revision":1,"category":0,"value":20},"geometry":{"type":"Point","coordinates":[-122.408896,37.777491]}},{"type":"Feature","id":21,"properties":{"revision":1,"category":1,"value":21},"geometry":{"type":"Point","coordinates":[-122.42112,37.770391]}},{"type":"Feature","id":22,"properties":{"revision":1,"category":2,"value":22},"geometry":{"type":"Point","coordinates":[-122.424746,37.779898]}},{"type":"Feature","id":23,"properties":{"revision":1,"category":3,"value":23},"geometry":{"type":"Point","coordinates":[-122.421574,37.765344]}},{"type":"Feature","id":24,"properties":{"revision":1,"category":0,"value":24},"geometry":{"type":"Point","coordinates":[-122.421081,37.776893]}},{"type":"Feature","id":25,"properties":{"revision":1,"category":1,"value":25},"geometry":{"type":"Point","coordinates":[-122.414765,37.783386]}},{"type":"Feature","id":26,"properties":{"revision":1,"category":2,"value":26},"geometry":{"type":"Point","coordinates":[-122.427809,37.771947]}},{"type":"Feature","id":27,"properties":{"revision":1,"category":3,"value":27},"geometry":{"type":"Point","coordinates":[-122.411314,37.783926]}},{"type":"Feature","id":28,"properties":{"revision":1,"category":0,"value":28},"geometry":{"type":"Point","coordinates":[-122.426273,37.767958]}},{"type":"Feature","id":29,"properties":{"revision":1,"category":1,"value":29},"geometry":{"type":"Point","coordinates":[-122.413367,37.772993]}},{"type":"Feature","id":30,"properties":{"revision":1,"category":2,"value":30},"geometry":{"type":"Point","coordinates":[-122.413777,37.777612]}},{"type":"Feature","id":31,"properties":{"revision":1,"category":3,"value":31},"geometry":{"type":"Point","coordinates":[-122.423626,37.774955]}},{"type":"Feature","id":32,"properties":{"revision":1,"category":0,"value":32},"geometry":{"type":"Point","coordinates":[-122.418607,37.784641]}},{"type":"Feature","id":33,"properties":{"revision":1,"category":1,"value":33},"geometry":{"type":"Point","coordinates":[-122.415748,37.767449]}},{"type":"Feature","id":34,"properties":{"revision":1,"category":2,"value":34},"geometry":{"type":"Point","coordinates":[-122.42319,37.781386]}},{"type":"Feature","id":35,"properties":{"revision":1,"category":3,"value":35},"geometry":{"type":"Point","coordinates":[-122.408297,37.770579]}},{"type":"Feature","id":36,"properties":{"revision":1,"category":0,"value":36},"geometry":{"type":"Point","coordinates":[-122.428326,37.779639]}},{"type":"Feature","id":37,"properties":{"revision":1,"category":1,"value":37},"geometry":{"type":"Point","coordinates":[-122.413608,37.765894]}},{"type":"Feature","id":38,"properties":{"revision":1,"category":2,"value":38},"geometry":{"type":"Point","coordinates":[-122.43007,37.783975]}},{"type":"Feature","id":39,"properties":{"revision":1,"category":3,"value":39},"geometry":{"type":"Point","coordinates":[-122.413393,37.776095]}},{"type":"Feature","id":40,"properties":{"revision":1,"category":0,"value":40},"geometry":{"type":"Point","coordinates":[-122.429204,37.781925]}},{"type":"Feature","id":41,"properties":{"revision":1,"category":1,"value":41},"geometry":{"type":"Point","coordinates":[-122.414312,37.768533]}},{"type":"Feature","id":42,"properties":{"revision":1,"category":2,"value":42},"geometry":{"type":"Point","coordinates":[-122.413465,37.780213]}},{"type":"Feature","id":43,"properties":{"revision":1,"category":3,"value":43},"geometry":{"type":"Point","coordinates":[-122.429923,37.770895]}},{"type":"Feature","id":44,"properties":{"revision":1,"category":0,"value":44},"geometry":{"type":"Point","coordinates":[-122.415237,37.772408]}},{"type":"Feature","id":45,"properties":{"revision":1,"category":1,"value":45},"geometry":{"type":"Point","coordinates":[-122.411569,37.784252]}},{"type":"Feature","id":46,"properties":{"revision":1,"category":2,"value":46},"geometry":{"type":"Point","coordinates":[-122.409709,37.771587]}},{"type":"Feature","id":47,"properties":{"revision":1,"category":3,"value":47},"geometry":{"type":"Point","coordinates":[-122.429754,37.768279]}},{"type":"Feature","id":48,"properties":{"revision":1,"category":0,"value":48},"geometry":{"type":"Point","coordinates":[-122.428113,37.773916]}},{"type":"Feature","id":49,"properties":{"revision":1,"category":1,"value":49},"geometry":{"type":"Point","coordinates":[-122.411935,37.772364]}},{"type":"Feature","id":50,"properties":{"revision":1,"category":2,"value":50},"geometry":{"type":"Point","coordinates":[-122.427906,37.768096]}},{"type":"Feature","id":51,"properties":{"revision":1,"category":3,"value":51},"geometry":{"type":"Point","coordinates":[-122.411645,37.768347]}},{"type":"Feature","id":52,"properties":{"revision":1,"category":0,"value":52},"geometry":{"type":"Point","coordinates":[-122.417772,37.774309]}},{"type":"Feature","id":53,"properties":{"revision":1,"category":1,"value":53},"geometry":{"type":"Point","coordinates":[-122.419043,37.779805]}},{"type":"Feature","id":54,"properties":{"revision":1,"category":2,"value":54},"geometry":{"type":"Point","coordinates":[-122.429978,37.77692]}},{"type":"Feature","id":55,"properties":{"revision":1,"category":3,"value":55},"geometry":{"type":"Point","coordinates":[-122.42539,37.775477]}},{"type":"Feature","id":56,"properties":{"revision":1,"category":0,"value":56},"geometry":{"type":"Point","coordinates":[-122.422654,37.771543]}},{"type":"Feature","id":57,"properties":{"revision":1,"category":1,"value":57},"geometry":{"type":"Point","coordinates":[-122.416347,37.769525]}},{"type":"Feature","id":58,"properties":{"revision":1,"category":2,"value":58},"geometry":{"type":"Point","coordinates":[-122.427637,37.772762]}},{"type":"Feature","id":59,"properties":{"revision":1,"category":3,"value":59},"geometry":{"type":"Point","coordinates":[-122.407439,37.765838]}},{"type":"Feature","id":60,"properties":{"revision":1,"category":0,"value":60},"geometry":{"type":"Point","coordinates":[-122.423945,37.769013]}},{"type":"Feature","id":61,"properties":{"revision":1,"category":1,"value":61},"geometry":{"type":"Point","coordinates":[-122.417301,37.766987]}},{"type":"Feature","id":62,"properties":{"revision":1,"category":2,"value":62},"geometry":{"type":"Point","coordinates":[-122.418373,37.778313]}},{"type":"Feature","id":63,"properties":{"revision":1,"category":3,"value":63},"geometry":{"type":"Point","coordinates":[-122.427453,37.771127]}},{"type":"Feature","id":64,"properties":{"revision":1,"category":0,"value":64},"geometry":{"type":"Point","coordinates":[-122.419474,37.781019]}},{"type":"Feature","id":65,"properties":{"revision":1,"category":1,"value":65},"geometry":{"type":"Point","coordinates":[-122.411318,37.783582]}},{"type":"Feature","id":66,"properties":{"revision":1,"category":2,"value":66},"geometry":{"type":"Point","coordinates":[-122.424554,37.78103]}},{"type":"Feature","id":67,"properties":{"revision":1,"category":3,"value":67},"geometry":{"type":"Point","coordinates":[-122.421372,37.772377]}},{"type":"Feature","id":68,"properties":{"revision":1,"category":0,"value":68},"geometry":{"type":"Point","coordinates":[-122.42649,37.768561]}},{"type":"Feature","id":69,"properties":{"revision":1,"category":1,"value":69},"geometry":{"type":"Point","coordinates":[-122.431658,37.778618]}},{"type":"Feature","id":70,"properties":{"revision":1,"category":2,"value":70},"geometry":{"type":"Point","coordinates":[-122.419123,37.777449]}},{"type":"Feature","id":71,"properties":{"revision":1,"category":3,"value":71},"geometry":{"type":"Point","coordinates":[-122.411515,37.774677]}},{"type":"Feature","id":72,"properties":{"revision":1,"category":0,"value":72},"geometry":{"type":"Point","coordinates":[-122.422677,37.765907]}},{"type":"Feature","id":73,"properties":{"revision":1,"category":1,"value":73},"geometry":{"type":"Point","coordinates":[-122.423275,37.779244]}},{"type":"Feature","id":74,"properties":{"revision":1,"category":2,"value":74},"geometry":{"type":"Point","coordinates":[-122.413347,37.77067]}},{"type":"Feature","id":75,"properties":{"revision":1,"category":3,"value":75},"geometry":{"type":"Point","coordinates":[-122.421524,37.7845]}},{"type":"Feature","id":76,"properties":{"revision":1,"category":0,"value":76},"geometry":{"type":"Point","coordinates":[-122.408239,37.771105]}},{"type":"Feature","id":77,"properties":{"revision":1,"category":1,"value":77},"geometry":{"type":"Point","coordinates":[-122.41482,37.774853]}},{"type":"Feature","id":78,"properties":{"revision":1,"category":2,"value":78},"geometry":{"type":"Point","coordinates":[-122.420009,37.770919]}},{"type":"Feature","id":79,"properties":{"revision":1,"category":3,"value":79},"geometry":{"type":"Point","coordinates":[-122.410352,37.776439]}},{"type":"Feature","id":80,"properties":{"revision":1,"category":0,"value":80},"geometry":{"type":"Point","coordinates":[-122.408323,37.784265]}},{"type":"Feature","id":81,"properties":{"revision":1,"category":1,"value":81},"geometry":{"type":"Point","coordinates":[-122.412377,37.770727]}},{"type":"Feature","id":82,"properties":{"revision":1,"category":2,"value":82},"geometry":{"type":"Point","coordinates":[-122.420465,37.775979]}},{"type":"Feature","id":83,"properties":{"revision":1,"category":3,"value":83},"geometry":{"type":"Point","coordinates":[-122.425666,37.775848]}},{"type":"Feature","id":84,"properties":{"revision":1,"category":0,"value":84},"geometry":{"type":"Point","coordinates":[-122.420902,37.783703]}},{"type":"Feature","id":85,"properties":{"revision":1,"category":1,"value":85},"geometry":{"type":"Point","coordinates":[-122.413863,37.782667]}},{"type":"Feature","id":86,"properties":{"revision":1,"category":2,"value":86},"geometry":{"type":"Point","coordinates":[-122.409985,37.782427]}},{"type":"Feature","id":87,"properties":{"revision":1,"category":3,"value":87},"geometry":{"type":"Point","coordinates":[-122.420633,37.784322]}},{"type":"Feature","id":88,"properties":{"revision":1,"category":0,"value":88},"geometry":{"type":"Point","coordinates":[-122.414868,37.766809]}},{"type":"Feature","id":89,"properties":{"revision":1,"category":1,"value":89},"geometry":{"type":"Point","coordinates":[-122.417516,37.773687]}},{"type":"Feature","id":90,"properties":{"revision":1,"category":2,"value":90},"geometry":{"type":"Point","coordinates":[-122.412266,37.771668]}},{"type":"Feature","id":91,"properties":{"revision":1,"category":3,"value":91},"geometry":{"type":"Point","coordinates":[-122.422292,37.772371]}},{"type":"Feature","id":92,"properties":{"revision":1,"category":0,"value":92},"geometry":{"type":"Point","coordinates":[-122.430998,37.767591]}},{"type":"Feature","id":93,"properties":{"revision":1,"category":1,"value":93},"geometry":{"type":"Point","coordinates":[-122.413094,37.780516]}},{"type":"Feature","id":94,"properties":{"revision":1,"category":2,"value":94},"geometry":{"type":"Point","coordinates":[-122.429956,37.770294]}},{"type":"Feature","id":95,"properties":{"revision":1,"category":3,"value":95},"geometry":{"type":"Point","coordinates":[-122.411143,37.771942]}},{"type":"Feature","id":96,"properties":{"revision":1,"category":0,"value":96},"geometry":{"type":"Point","coordinates":[-122.416071,37.772248]}},{"type":"Feature","id":97,"properties":{"revision":1,"category":1,"value":97},"geometry":{"type":"Point","coordinates":[-122.42278,37.776953]}},{"type":"Feature","id":98,"properties":{"revision":1,"category":2,"value":98},"geometry":{"type":"Point","coordinates":[-122.429677,37.772029]}},{"type":"Feature","id":99,"properties":{"revision":1,"category":3,"value":99},"geometry":{"type":"Point","coordinates":[-122.427847,37.770708]}}]}
