{"type":"FeatureCollection","features":[{"type":"Feature","id":0,"properties":{"revision":1},"geometry":{"type":"LineString","coordinates":[[-122.4294,37.775],[-122.42939,37.77503],[-122.42938,37.77506],[-122.42937,37.77509],[-122.42936,37.77512],[-122.42935,37.77515],[-122.42934,37.77518],[-122.42933,37.77521],[-122.42932,37.77524],[-122.42931,37.77527],[-122.4293,37.7753],[-122.42929,37.775329],[-122.42928,37.775359],[-122.42927,37.775389],[-122.42926,37.775419],[-122.42925,37.775448],[-122.42924,37.775478],[-122.42923,37.775508],[-122.42922,37.775537],[-122.42921,37.775567],[-122.4292,37.775596],[-122.42919,37.775625],[-122.42918,37.775655],[-122.42917,37.775684],[-122.42916,37.775713],[-122.42915,37.775742],[-122.42914,37.775771],[-122.42913,37.7758],[-122.42912,37.775829],[-122.42911,37.775858],[-122.4291,37.775887],[-122.42909,37.775915],[-122.42908,37.775944],[-122.42907,37.775972],[-122.42906,37.776],[-122.42905,37.776029],[-122.42904,37.776057],[-122.42903,37.776085],[-122.42902,37.776113],[-122.42901,37.776141],[-122.429,37.776168],[-122.42899,37.776196],[-122.42898,37.776223],[-122.42897,37.776251],[-122.42896,37.776278],[-122.42895,37.776305],[-122.42894,37.776332],[-122.42893,37.776359],[-122.42892,37.776385],[-122.42891,37.776412],[-122.4289,37.776438],[-122.42889,37.776465],[-122.42888,37.776491],[-122.42887,37.776517],[-122.42886,37.776542],[-122.42885,37.776568],[-122.42884,37.776594],[-122.42883,37.776619],[-122.42882,37.776644],[-122.42881,37.776669],[-122.4288,37.776694],[-122.42879,37.776719],[-122.42878,37.776743],[-122.42877,37.776767],[-122.42876,37.776792],[-122.42875,37.776816],[-122.42874,37.776839],[-122.42873,37.776863],[-122.42872,37.776886],[-122.42871,37.77691],[-122.4287,37.776933],[-122.42869,37.776956],[-122.42868,37.776978],[-122.42867,37.777001],[-122.42866,37.777023],[-122.42865,37.777045],[-122.42864,37.777067],[-122.42863,37.777088],[-122.42862,37.77711],[-122.42861,37.777131],[-122.4286,37.777152],[-122.42859,37.777173],[-122.42858,37.777193],[-122.42857,37.777214],[-122.42856,37.777234],[-122.42855,37.777254],[-122.42854,37.777274],[-122.42853,37.777293],[-122.42852,37.777312],[-122.42851,37.777331],[-122.4285,37.77735],[-122.42849,37.777369],[-122.42848,37.777387],[-122.42847,37.777405],[-122.42846,37.777423],[-122.42845,37.77744],[-122.42844,37.777458],[-122.42843,37.777475],[-122.42842,37.777491],[-122.42841,37.777508],[-122.428399,37.777524],[-122.428389,37.77754],[-122.428379,37.777556],[-122.428369,37.777572],[-122.428359,37.777587],[-122.428349,37.777602],[-122.428339,37.777617],[-122.428329,37.777632],[-122.428319,37.777646],[-122.428309,37.77766],[-122.428299,37.777674],[-122.428289,37.777687],[-122.428279,37.7777],[-122.428269,37.777713],[-122.428259,37.777726],[-122.428249,37.777738],[-122.428239,37.77775],[-122.428229,37.777762],[-122.428219,37.777774],[-122.428209,37.777785],[-122.428199,37.777796],[-122.428189,37.777807],[-122.428179,37.777817],[-122.428169,37.777827],[-122.428159,37.777837],[-122.428149,37.777847],[-122.428139,37.777856],[-122.428129,37.777865],[-122.428119,37.777874],[-122.428109,37.777883],[-122.428099,37.777891],[-122.428089,37.777899],[-122.428079,37.777906],[-122.428069,37.777913],[-122.428059,37.77792],[-122.428049,37.777927],[-122.428039,37.777934],[-122.428029,37.77794],[-122.428019,37.777946],[-122.428009,37.777951],[-122.427999,37.777956],[-122.427989,37.777961],[-122.427979,37.777966],[-122.427969,37.77797],[-122.427959,37.777974],[-122.427949,37.777978],[-122.427939,37.777982],[-122.427929,37.777985],[-122.427919,37.777988],[-122.427909,37.77799],[-122.427899,37.777992],[-122.427889,37.777994],[-122.427879,37.777996],[-122.427869,37.777998],[-122.427859,37.777999],[-122.427849,37.777999],[-122.427839,37.778],[-122.427829,37.778],[-122.427819,37.778],[-122.427809,37.777999],[-122.427799,37.777999],[-122.427789,37.777998],[-122.427779,37.777996],[-122.427769,37.777995],[-122.427759,37.777993],[-122.427749,37.777991],[-122.427739,37.777988],[-122.427729,37.777985],[-122.427719,37.777982],[-122.427709,37.777979],[-122.427699,37.777975],[-122.427689,37.777971],[-122.427679,37.777967],[-122.427669,37.777962],[-122.427659,37.777957],[-122.427649,37.777952],[-122.427639,37.777946],[-122.427629,37.777941],[-122.427619,37.777935],[-122.427609,37.777928],[-122.427599,37.777922],[-122.427589,37.777915],[-122.427579,37.777907],[-122.427569,37.7779],[-122.427559,37.777892],[-122.427549,37.777884],[-122.427539,37.777875],[-122.427529,37.777867],[-122.427519,37.777858],[-122.427509,37.777848],[-122.427499,37.777839],[-122.427489,37.777829],[-122.427479,37.777819],[-122.427469,37.777809],[-122.427459,37.777798],[-122.427449,37.777787],[-122.427439,37.777776],[-122.427429,37.777764],[-122.427419,37.777752],[-122.427409,37.77774],[-122.427399,37.777728],[-122.427389,37.777715],[-122.427379,37.777702],[-122.427369,37.777689],[-122.427359,37.777676],[-122.427349,37.777662],[-122.427339,37.777648],[-122.427329,37.777634],[-122.427319,37.777619],[-122.427309,37.777605],[-122.427299,37.77759],[-122.427289,37.777574],[-122.427279,37.777559],[-122.427269,37.777543],[-122.427259,37.777527],[-122.427249,37.777511],[-122.427239,37.777494],[-122.427229,37.777477],[-122.427219,37.77746],[-122.427209,37.777443],[-122.427199,37.777425],[-122.427189,37.777408],[-122.427179,37.77739],[-122.427169,37.777371],[-122.427159,37.777353],[-122.427149,37.777334],[-122.427139,37.777315],[-122.427129,37.777296],[-122.427119,37.777277],[-122.427109,37.777257],[-122.427099,37.777237],[-122.427089,37.777217],[-122.427079,37.777197],[-122.427069,37.777176],[-122.427059,37.777155],[-122.427049,37.777134],[-122.427039,37.777113],[-122.427029,37.777092],[-122.427019,37.77707],[-122.427009,37.777048],[-122.426999,37.777026],[-122.426989,37.777004],[-122.426979,37.776982],[-122.426969,37.776959],[-122.426959,37.776936],[-122.426949,37.776913],[-122.426939,37.77689],[-122.426929,37.776867],[-122.426919,37.776843],[-122.426909,37.776819],[-122.426899,37.776795],[-122.426889,37.776771],[-122.426879,37.776747],[-122.426869,37.776723],[-122.426859,37.776698],[-122.426849,37.776673],[-122.426839,37.776648],[-122.426829,37.776623],[-122.426819,37.776598],[-122.426809,37.776572],[-122.426799,37.776547],[-122.426789,37.776521],[-122.426779,37.776495],[-122.426769,37.776469],[-122.426759,37.776442],[-122.426749,37.776416],[-122.426739,37.77639],[-122.426729,37.776363],[-122.426719,37.776336],[-122.426709,37.776309],[-122.426699,37.776282],[-122.426689,37.776255],[-122.426679,37.776228],[-122.426669,37.7762],[-122.426659,37.776173],[-122.426649,37.776145],[-122.426639,37.776117],[-122.426629,37.776089],[-122.426619,37.776061],[-122.426609,37.776033],[-122.426599,37.776005],[-122.426589,37.775977],[-122.426579,37.775948],[-122.426569,37.77592],[-122.426559,37.775891],[-122.426549,37.775862],[-122.426539,37.775834],[-122.426529,37.775805],[-122.426519,37.775776],[-122.426509,37.775747],[-122.426499,37.775718],[-122.426489,37.775689],[-122.426479,37.775659],[-122.426469,37.77563],[-122.426459,37.775601],[-122.426449,37.775571],[-122.426439,37.775542],[-122.426429,37.775512],[-122.426419,37.775483],[-122.426409,37.775453],[-122.426398,37.775423],[-122.426388,37.775394],[-122.426378,37.775364],[-122.426368,37.775334],[-122.426358,37.775304],[-122.426348,37.775274],[-122.426338,37.775245],[-122.426328,37.775215],[-122.426318,37.775185],[-122.426308,37.775155],[-122.426298,37.775125],[-122.426288,37.775095],[-122.426278,37.775065],[-122.426268,37.775035],[-122.426258,37.775005],[-122.426248,37.774975],[-122.426238,37.774945],[-122.426228,37.774915],[-122.426218,37.774885],[-122.426208,37.774855],[-122.426198,37.774825],[-122.426188,37.774795],[-122.426178,37.774765],[-122.426168,37.774735],[-122.426158,37.774705],[-122.426148,37.774675],[-122.426138,37.774646],[-122.426128,37.774616],[-122.426118,37.774586],[-122.426108,37.774556],[-122.426098,37.774527],[-122.426088,37.774497],[-122.426078,37.774468],[-122.426068,37.774438],[-122.426058,37.774409],[-122.426048,37.774379],[-122.426038,37.77435],[-122.426028,37.774321],[-122.426018,37.774292],[-122.426008,37.774262],[-122.425998,37.774233],[-122.425988,37.774204],[-122.425978,37.774176],[-122.425968,37.774147],[-122.425958,37.774118],[-122.425948,37.774089],[-122.425938,37.774061],[-122.425928,37.774032],[-122.425918,37.774004],[-122.425908,37.773976],[-122.425898,37.773948],[-122.425888,37.77392],[-122.425878,37.773892],[-122.425868,37.773864],[-122.425858,37.773836],[-122.425848,37.773809],[-122.425838,37.773781],[-122.425828,37.773754],[-122.425818,37.773727],[-122.425808,37.773699],[-122.425798,37.773672],[-122.425788,37.773646],[-122.425778,37.773619],[-122.425768,37.773592],[-122.425758,37.773566],[-122.425748,37.77354],[-122.425738,37.773514],[-122.425728,37.773488],[-122.425718,37.773462],[-122.425708,37.773436],[-122.425698,37.77341],[-122.425688,37.773385],[-122.425678,37.77336],[-122.425668,37.773335],[-122.425658,37.77331],[-122.425648,37.773285],[-122.425638,37.773261],[-122.425628,37.773236],[-122.425618,37.773212],[-122.425608,37.773188],[-122.425598,37.773164],[-122.425588,37.773141],[-122.425578,37.773117],[-122.425568,37.773094],[-122.425558,37.773071],[-122.425548,37.773048],[-122.425538,37.773025],[-122.425528,37.773003],[-122.425518,37.772981],[-122.425508,37.772959],[-122.425498,37.772937],[-122.425488,37.772915],[-122.425478,37.772894],[-122.425468,37.772872],[-122.425458,37.772851],[-122.425448,37.77283],[-122.425438,37.77281],[-122.425428,37.772789],[-122.425418,37.772769],[-122.425408,37.772749],[-122.425398,37.77273],[-122.425388,37.77271],[-122.425378,37.772691],[-122.425368,37.772672],[-122.425358,37.772653],[-122.425348,37.772634],[-122.425338,37.772616],[-122.425328,37.772598],[-122.425318,37.77258],[-122.425308,37.772563],[-122.425298,37.772545],[-122.425288,37.772528],[-122.425278,37.772511],[-122.425268,37.772495],[-122.425258,37.772478],[-122.425248,37.772462],[-122.425238,37.772446],[-122.425228,37.772431],[-122.425218,37.772415],[-122.425208,37.7724],[-122.425198,37.772385],[-122.425188,37.772371],[-122.425178,37.772356],[-122.425168,37.772342],[-122.425158,37.772329],[-122.425148,37.772315],[-122.425138,37.772302],[-122.425128,37.772289],[-122.425118,37.772276],[-122.425108,37.772264],[-122.425098,37.772252],[-122.425088,37.77224],[-122.425078,37.772228],[-122.425068,37.772217],[-122.425058,37.772206],[-122.425048,37.772195],[-122.425038,37.772184],[-122.425028,37.772174],[-122.425018,37.772164],[-122.425008,37.772155],[-122.424998,37.772145],[-122.424988,37.772136],[-122.424978,37.772127],[-122.424968,37.772119],[-122.424958,37.772111],[-122.424948,37.772103],[-122.424938,37.772095],[-122.424928,37.772088],[-122.424918,37.772081],[-122.424908,37.772074],[-122.424898,37.772067],[-122.424888,37.772061],[-122.424878,37.772055],[-122.424868,37.77205],[-122.424858,37.772044],[-122.424848,37.772039],[-122.424838,37.772035],[-122.424828,37.77203],[-122.424818,37.772026],[-122.424808,37.772022],[-122.424798,37.772019],[-122.424788,37.772016],[-122.424778,37.772013],[-122.424768,37.77201],[-122.424758,37.772008],[-122.424748,37.772006],[-122.424738,37.772004],[-122.424728,37.772003],[-122.424718,37.772002],[-122.424708,37.772001],[-122.424698,37.772],[-122.424688,37.772],[-122.424678,37.772],[-122.424668,37.772],[-122.424658,37.772001],[-122.424648,37.772002],[-122.424638,37.772003],[-122.424628,37.772005],[-122.424618,37.772007],[-122.424608,37.772009],[-122.424598,37.772012],[-122.424588,37.772014],[-122.424578,37.772017],[-122.424568,37.772021],[-122.424558,37.772024],[-122.424548,37.772028],[-122.424538,37.772033],[-122.424528,37.772037],[-122.424518,37.772042],[-122.424508,37.772047],[-122.424498,37.772053],[-122.424488,37.772058],[-122.424478,37.772064],[-122.424468,37.772071],[-122.424458,37.772077],[-122.424448,37.772084],[-122.424438,37.772091],[-122.424428,37.772099],[-122.424418,37.772107],[-122.424408,37.772115],[-122.424397,37.772123],[-122.424387,37.772132],[-122.424377,37.772141],[-122.424367,37.77215],[-122.424357,37.77216],[-122.424347,37.772169],[-122.424337,37.772179],[-122.424327,37.77219],[-122.424317,37.7722],[-122.424307,37.772211],[-122.424297,37.772223],[-122.424287,37.772234],[-122.424277,37.772246],[-122.424267,37.772258],[-122.424257,37.77227],[-122.424247,37.772283],[-122.424237,37.772296],[-122.424227,37.772309],[-122.424217,37.772322],[-122.424207,37.772336],[-122.424197,37.77235],[-122.424187,37.772364],[-122.424177,37.772378],[-122.424167,37.772393],[-122.424157,37.772408],[-122.424147,37.772423],[-122.424137,37.772439],[-122.424127,37.772454],[-122.424117,37.77247],[-122.424107,37.772487],[-122.424097,37.772503],[-122.424087,37.77252],[-122.424077,37.772537],[-122.424067,37.772554],[-122.424057,37.772572],[-122.424047,37.772589],[-122.424037,37.772607],[-122.424027,37.772626],[-122.424017,37.772644],[-122.424007,37.772663],[-122.423997,37.772682],[-122.423987,37.772701],[-122.423977,37.77272],[-122.423967,37.77274],[-122.423957,37.77276],[-122.423947,37.77278],[-122.423937,37.7728],[-122.423927,37.772821],[-122.423917,37.772841],[-122.423907,37.772862],[-122.423897,37.772883],[-122.423887,37.772905],[-122.423877,37.772926],[-122.423867,37.772948],[-122.423857,37.77297],[-122.423847,37.772992],[-122.423837,37.773015],[-122.423827,37.773037],[-122.423817,37.77306],[-122.423807,37.773083],[-122.423797,37.773106],[-122.423787,37.77313],[-122.423777,37.773153],[-122.423767,37.773177],[-122.423757,37.773201],[-122.423747,37.773225],[-122.423737,37.773249],[-122.423727,37.773274],[-122.423717,37.773298],[-122.423707,37.773323],[-122.423697,37.773348],[-122.423687,37.773373],[-122.423677,37.773398],[-122.423667,37.773424],[-122.423657,37.773449],[-122.423647,37.773475],[-122.423637,37.773501],[-122.423627,37.773527],[-122.423617,37.773553],[-122.423607,37.77358],[-122.423597,37.773606],[-122.423587,37.773633],[-122.423577,37.77366],[-122.423567,37.773687],[-122.423557,37.773714],[-122.423547,37.773741],[-122.423537,37.773768],[-122.423527,37.773795],[-122.423517,37.773823],[-122.423507,37.773851],[-122.423497,37.773878],[-122.423487,37.773906],[-122.423477,37.773934],[-122.423467,37.773962],[-122.423457,37.773991],[-122.423447,37.774019],[-122.423437,37.774047],[-122.423427,37.774076],[-122.423417,37.774104],[-122.423407,37.774133],[-122.423397,37.774162],[-122.423387,37.774191],[-122.423377,37.77422],[-122.423367,37.774249],[-122.423357,37.774278],[-122.423347,37.774307],[-122.423337,37.774336],[-122.423327,37.774365],[-122.423317,37.774395],[-122.423307,37.774424],[-122.423297,37.774454],[-122.423287,37.774483],[-122.423277,37.774513],[-122.423267,37.774542],[-122.423257,37.774572],[-122.423247,37.774602],[-122.423237,37.774631],[-122.423227,37.774661],[-122.423217,37.774691],[-122.423207,37.774721],[-122.423197,37.774751],[-122.423187,37.774781],[-122.423177,37.774811],[-122.423167,37.774841],[-122.423157,37.77487],[-122.423147,37.7749],[-122.423137,37.77493],[-122.423127,37.77496],[-122.423117,37.77499],[-122.423107,37.77502],[-122.423097,37.77505],[-122.423087,37.77508],[-122.423077,37.77511],[-122.423067,37.77514],[-122.423057,37.77517],[-122.423047,37.7752],[-122.423037,37.77523],[-122.423027,37.77526],[-122.423017,37.77529],[-122.423007,37.77532],[-122.422997,37.77535],[-122.422987,37.775379],[-122.422977,37.775409],[-122.422967,37.775439],[-122.422957,37.775469],[-122.422947,37.775498],[-122.422937,37.775528],[-122.422927,37.775557],[-122.422917,37.775587],[-122.422907,37.775616],[-122.422897,37.775645],[-122.422887,37.775675],[-122.422877,37.775704],[-122.422867,37.775733],[-122.422857,37.775762],[-122.422847,37.775791],[-122.422837,37.77582],[-122.422827,37.775849],[-122.422817,37.775877],[-122.422807,37.775906],[-122.422797,37.775935],[-122.422787,37.775963],[-122.422777,37.775991],[-122.422767,37.77602],[-122.422757,37.776048],[-122.422747,37.776076],[-122.422737,37.776104],[-122.422727,37.776132],[-122.422717,37.776159],[-122.422707,37.776187],[-122.422697,37.776215],[-122.422687,37.776242],[-122.422677,37.776269],[-122.422667,37.776296],[-122.422657,37.776323],[-122.422647,37.77635],[-122.422637,37.776377],[-122.422627,37.776403],[-122.422617,37.77643],[-122.422607,37.776456],[-122.422597,37.776482],[-122.422587,37.776508],[-122.422577,37.776534],[-122.422567,37.77656],[-122.422557,37.776585],[-122.422547,37.776611],[-122.422537,37.776636],[-122.422527,37.776661],[-122.422517,37.776686],[-122.422507,37.776711],[-122.422497,37.776735],[-122.422487,37.77676],[-122.422477,37.776784],[-122.422467,37.776808],[-122.422457,37.776832],[-122.422447,37.776855],[-122.422437,37.776879],[-122.422427,37.776902],[-122.422417,37.776925],[-122.422407,37.776948],[-122.422396,37.776971],[-122.422386,37.776993],[-122.422376,37.777016],[-122.422366,37.777038],[-122.422356,37.77706],[-122.422346,37.777082],[-122.422336,37.777103],[-122.422326,37.777124],[-122.422316,37.777145],[-122.422306,37.777166],[-122.422296,37.777187],[-122.422286,37.777207],[-122.422276,37.777228],[-122.422266,37.777248],[-122.422256,37.777267],[-122.422246,37.777287],[-122.422236,37.777306],[-122.422226,37.777325],[-122.422216,37.777344],[-122.422206,37.777363],[-122.422196,37.777381],[-122.422186,37.777399],[-122.422176,37.777417],[-122.422166,37.777435],[-122.422156,37.777452],[-122.422146,37.777469],[-122.422136,37.777486],[-122.422126,37.777503],[-122.422116,37.777519],[-122.422106,37.777535],[-122.422096,37.777551],[-122.422086,37.777567],[-122.422076,37.777582],[-122.422066,37.777598],[-122.422056,37.777612],[-122.422046,37.777627],[-122.422036,37.777641],[-122.422026,37.777655],[-122.422016,37.777669],[-122.422006,37.777683],[-122.421996,37.777696],[-122.421986,37.777709],[-122.421976,37.777722],[-122.421966,37.777734],[-122.421956,37.777747],[-122.421946,37.777759],[-122.421936,37.77777],[-122.421926,37.777782],[-122.421916,37.777793],[-122.421906,37.777803],[-122.421896,37.777814],[-122.421886,37.777824],[-122.421876,37.777834],[-122.421866,37.777844],[-122.421856,37.777853],[-122.421846,37.777862],[-122.421836,37.777871],[-122.421826,37.77788],[-122.421816,37.777888],[-122.421806,37.777896],[-122.421796,37.777904],[-122.421786,37.777911],[-122.421776,37.777918],[-122.421766,37.777925],[-122.421756,37.777932],[-122.421746,37.777938],[-122.421736,37.777944],[-122.421726,37.777949],[-122.421716,37.777955],[-122.421706,37.77796],[-122.421696,37.777965],[-122.421686,37.777969],[-122.421676,37.777973],[-122.421666,37.777977],[-122.421656,37.777981],[-122.421646,37.777984],[-122.421636,37.777987],[-122.421626,37.777989],[-122.421616,37.777992],[-122.421606,37.777994],[-122.421596,37.777996],[-122.421586,37.777997],[-122.421576,37.777998],[-122.421566,37.777999],[-122.421556,37.778],[-122.421546,37.778],[-122.421536,37.778],[-122.421526,37.778],[-122.421516,37.777999],[-122.421506,37.777998],[-122.421496,37.777997],[-122.421486,37.777995],[-122.421476,37.777993],[-122.421466,37.777991],[-122.421456,37.777989],[-122.421446,37.777986],[-122.421436,37.777983],[-122.421426,37.77798],[-122.421416,37.777976],[-122.421406,37.777972],[-122.421396,37.777968],[-122.421386,37.777964],[-122.421376,37.777959],[-122.421366,37.777954],[-122.421356,37.777948],[-122.421346,37.777943],[-122.421336,37.777937],[-122.421326,37.77793],[-122.421316,37.777924],[-122.421306,37.777917],[-122.421296,37.77791],[-122.421286,37.777902],[-122.421276,37.777894],[-122.421266,37.777886],[-122.421256,37.777878],[-122.421246,37.77787],[-122.421236,37.777861],[-122.421226,37.777851],[-122.421216,37.777842],[-122.421206,37.777832],[-122.421196,37.777822],[-122.421186,37.777812],[-122.421176,37.777801],[-122.421166,37.77779],[-122.421156,37.777779],[-122.421146,37.777768],[-122.421136,37.777756],[-122.421126,37.777744],[-122.421116,37.777732],[-122.421106,37.777719],[-122.421096,37.777707],[-122.421086,37.777693],[-122.421076,37.77768],[-122.421066,37.777666],[-122.421056,37.777653],[-122.421046,37.777638],[-122.421036,37.777624],[-122.421026,37.777609],[-122.421016,37.777594],[-122.421006,37.777579],[-122.420996,37.777564],[-122.420986,37.777548],[-122.420976,37.777532],[-122.420966,37.777516],[-122.420956,37.777499],[-122.420946,37.777483],[-122.420936,37.777466],[-122.420926,37.777449],[-122.420916,37.777431],[-122.420906,37.777413],[-122.420896,37.777395],[-122.420886,37.777377],[-122.420876,37.777359],[-122.420866,37.77734],[-122.420856,37.777321],[-122.420846,37.777302],[-122.420836,37.777283],[-122.420826,37.777263],[-122.420816,37.777243],[-122.420806,37.777223],[-122.420796,37.777203],[-122.420786,37.777183],[-122.420776,37.777162],[-122.420766,37.777141],[-122.420756,37.77712],[-122.420746,37.777099],[-122.420736,37.777077],[-122.420726,37.777055],[-122.420716,37.777033],[-122.420706,37.777011],[-122.420696,37.776989],[-122.420686,37.776966],[-122.420676,37.776944],[-122.420666,37.776921],[-122.420656,37.776898],[-122.420646,37.776874],[-122.420636,37.776851],[-122.420626,37.776827],[-122.420616,37.776803],[-122.420606,37.776779],[-122.420596,37.776755],[-122.420586,37.77673],[-122.420576,37.776706],[-122.420566,37.776681],[-122.420556,37.776656],[-122.420546,37.776631],[-122.420536,37.776606],[-122.420526,37.77658],[-122.420516,37.776555],[-122.420506,37.776529],[-122.420496,37.776503],[-122.420486,37.776477],[-122.420476,37.776451],[-122.420466,37.776425],[-122.420456,37.776398],[-122.420446,37.776371],[-122.420436,37.776345],[-122.420426,37.776318],[-122.420416,37.776291],[-122.420406,37.776264],[-122.420395,37.776236],[-122.420385,37.776209],[-122.420375,37.776181],[-122.420365,37.776154],[-122.420355,37.776126],[-122.420345,37.776098],[-122.420335,37.77607],[-122.420325,37.776042],[-122.420315,37.776014],[-122.420305,37.775986],[-122.420295,37.775957],[-122.420285,37.775929],[-122.420275,37.7759],[-122.420265,37.775872],[-122.420255,37.775843],[-122.420245,37.775814],[-122.420235,37.775785],[-122.420225,37.775756],[-122.420215,37.775727],[-122.420205,37.775698],[-122.420195,37.775669],[-122.420185,37.775639],[-122.420175,37.77561],[-122.420165,37.775581],[-122.420155,37.775551],[-122.420145,37.775522],[-122.420135,37.775492],[-122.420125,37.775462],[-122.420115,37.775433],[-122.420105,37.775403],[-122.420095,37.775373],[-122.420085,37.775344],[-122.420075,37.775314],[-122.420065,37.775284],[-122.420055,37.775254],[-122.420045,37.775224],[-122.420035,37.775194],[-122.420025,37.775164],[-122.420015,37.775134],[-122.420005,37.775104],[-122.419995,37.775074],[-122.419985,37.775044],[-122.419975,37.775014],[-122.419965,37.774984],[-122.419955,37.774954],[-122.419945,37.774924],[-122.419935,37.774894],[-122.419925,37.774864],[-122.419915,37.774834],[-122.419905,37.774804],[-122.419895,37.774775],[-122.419885,37.774745],[-122.419875,37.774715],[-122.419865,37.774685],[-122.419855,37.774655],[-122.419845,37.774625],[-122.419835,37.774596],[-122.419825,37.774566],[-122.419815,37.774536],[-122.419805,37.774507],[-122.419795,37.774477],[-122.419785,37.774448],[-122.419775,37.774418],[-122.419765,37.774389],[-122.419755,37.774359],[-122.419745,37.77433],[-122.419735,37.774301],[-122.419725,37.774272],[-122.419715,37.774243],[-122.419705,37.774214],[-122.419695,37.774185],[-122.419685,37.774156],[-122.419675,37.774127],[-122.419665,37.774098],[-122.419655,37.77407],[-122.419645,37.774041],[-122.419635,37.774013],[-122.419625,37.773985],[-122.419615,37.773957],[-122.419605,37.773929],[-122.419595,37.773901],[-122.419585,37.773873],[-122.419575,37.773845],[-122.419565,37.773817],[-122.419555,37.77379],[-122.419545,37.773762],[-122.419535,37.773735],[-122.419525,37.773708],[-122.419515,37.773681],[-122.419505,37.773654],[-122.419495,37.773627],[-122.419485,37.773601],[-122.419475,37.773574],[-122.419465,37.773548],[-122.419455,37.773522],[-122.419445,37.773496],[-122.419435,37.77347],[-122.419425,37.773444],[-122.419415,37.773419],[-122.419405,37.773393],[-122.419395,37.773368],[-122.419385,37.773343],[-122.419375,37.773318],[-122.419365,37.773293],[-122.419355,37.773269],[-122.419345,37.773244],[-122.419335,37.77322],[-122.419325,37.773196],[-122.419315,37.773172],[-122.419305,37.773148],[-122.419295,37.773125],[-122.419285,37.773101],[-122.419275,37.773078],[-122.419265,37.773055],[-122.419255,37.773033],[-122.419245,37.77301],[-122.419235,37.772988],[-122.419225,37.772966],[-122.419215,37.772944],[-122.419205,37.772922],[-122.419195,37.7729],[-122.419185,37.772879],[-122.419175,37.772858],[-122.419165,37.772837],[-122.419155,37.772816],[-122.419145,37.772796],[-122.419135,37.772776],[-122.419125,37.772756],[-122.419115,37.772736],[-122.419105,37.772716],[-122.419095,37.772697],[-122.419085,37.772678],[-122.419075,37.772659],[-122.419065,37.77264],[-122.419055,37.772622],[-122.419045,37.772604],[-122.419035,37.772586],[-122.419025,37.772568],[-122.419015,37.772551],[-122.419005,37.772533],[-122.418995,37.772517],[-122.418985,37.7725],[-122.418975,37.772483],[-122.418965,37.772467],[-122.418955,37.772451],[-122.418945,37.772436],[-122.418935,37.77242],[-122.418925,37.772405],[-122.418915,37.77239],[-122.418905,37.772375],[-122.418895,37.772361],[-122.418885,37.772347],[-122.418875,37.772333],[-122.418865,37.772319],[-122.418855,37.772306],[-122.418845,37.772293],[-122.418835,37.77228],[-122.418825,37.772268],[-122.418815,37.772255],[-122.418805,37.772243],[-122.418795,37.772232],[-122.418785,37.77222],[-122.418775,37.772209],[-122.418765,37.772198],[-122.418755,37.772188],[-122.418745,37.772177],[-122.418735,37.772167],[-122.418725,37.772158],[-122.418715,37.772148],[-122.418705,37.772139],[-122.418695,37.77213],[-122.418685,37.772121],[-122.418675,37.772113],[-122.418665,37.772105],[-122.418655,37.772097],[-122.418645,37.77209],[-122.418635,37.772083],[-122.418625,37.772076],[-122.418615,37.772069],[-122.418605,37.772063],[-122.418595,37.772057],[-122.418585,37.772052],[-122.418575,37.772046],[-122.418565,37.772041],[-122.418555,37.772036],[-122.418545,37.772032],[-122.418535,37.772028],[-122.418525,37.772024],[-122.418515,37.77202],[-122.418505,37.772017],[-122.418495,37.772014],[-122.418485,37.772011],[-122.418475,37.772009],[-122.418465,37.772006],[-122.418455,37.772005],[-122.418445,37.772003],[-122.418435,37.772002],[-122.418425,37.772001],[-122.418415,37.772],[-122.418405,37.772],[-122.418394,37.772],[-122.418384,37.772],[-122.418374,37.772001],[-122.418364,37.772002],[-122.418354,37.772003],[-122.418344,37.772004],[-122.418334,37.772006],[-122.418324,37.772008],[-122.418314,37.772011],[-122.418304,37.772013],[-122.418294,37.772016],[-122.418284,37.77202],[-122.418274,37.772023],[-122.418264,37.772027],[-122.418254,37.772031],[-122.418244,37.772036],[-122.418234,37.77204],[-122.418224,37.772046],[-122.418214,37.772051],[-122.418204,37.772057],[-122.418194,37.772062],[-122.418184,37.772069],[-122.418174,37.772075],[-122.418164,37.772082],[-122.418154,37.772089],[-122.418144,37.772097],[-122.418134,37.772104],[-122.418124,37.772112],[-122.418114,37.772121],[-122.418104,37.772129],[-122.418094,37.772138],[-122.418084,37.772147],[-122.418074,37.772156],[-122.418064,37.772166],[-122.418054,37.772176],[-122.418044,37.772186],[-122.418034,37.772197],[-122.418024,37.772208],[-122.418014,37.772219],[-122.418004,37.77223],[-122.417994,37.772242],[-122.417984,37.772254],[-122.417974,37.772266],[-122.417964,37.772279],[-122.417954,37.772291],[-122.417944,37.772304],[-122.417934,37.772318],[-122.417924,37.772331],[-122.417914,37.772345],[-122.417904,37.772359],[-122.417894,37.772374],[-122.417884,37.772388],[-122.417874,37.772403],[-122.417864,37.772418],[-122.417854,37.772434],[-122.417844,37.772449],[-122.417834,37.772465],[-122.417824,37.772481],[-122.417814,37.772498],[-122.417804,37.772515],[-122.417794,37.772532],[-122.417784,37.772549],[-122.417774,37.772566],[-122.417764,37.772584],[-122.417754,37.772602],[-122.417744,37.77262],[-122.417734,37.772638],[-122.417724,37.772657],[-122.417714,37.772676],[-122.417704,37.772695],[-122.417694,37.772714],[-122.417684,37.772734],[-122.417674,37.772753],[-122.417664,37.772773],[-122.417654,37.772794],[-122.417644,37.772814],[-122.417634,37.772835],[-122.417624,37.772856],[-122.417614,37.772877],[-122.417604,37.772898],[-122.417594,37.772919],[-122.417584,37.772941],[-122.417574,37.772963],[-122.417564,37.772985],[-122.417554,37.773008],[-122.417544,37.77303],[-122.417534,37.773053],[-122.417524,37.773076],[-122.417514,37.773099],[-122.417504,37.773122],[-122.417494,37.773146],[-122.417484,37.773169],[-122.417474,37.773193],[-122.417464,37.773217],[-122.417454,37.773241],[-122.417444,37.773266],[-122.417434,37.77329],[-122.417424,37.773315],[-122.417414,37.77334],[-122.417404,37.773365],[-122.417394,37.77339],[-122.417384,37.773416],[-122.417374,37.773441],[-122.417364,37.773467],[-122.417354,37.773493],[-122.417344,37.773519],[-122.417334,37.773545],[-122.417324,37.773571],[-122.417314,37.773598],[-122.417304,37.773624],[-122.417294,37.773651],[-122.417284,37.773678],[-122.417274,37.773705],[-122.417264,37.773732],[-122.417254,37.773759],[-122.417244,37.773787],[-122.417234,37.773814],[-122.417224,37.773842],[-122.417214,37.77387],[-122.417204,37.773897],[-122.417194,37.773925],[-122.417184,37.773953],[-122.417174,37.773982],[-122.417164,37.77401],[-122.417154,37.774038],[-122.417144,37.774067],[-122.417134,37.774095],[-122.417124,37.774124],[-122.417114,37.774153],[-122.417104,37.774181],[-122.417094,37.77421],[-122.417084,37.774239],[-122.417074,37.774268],[-122.417064,37.774297],[-122.417054,37.774327],[-122.417044,37.774356],[-122.417034,37.774385],[-122.417024,37.774415],[-122.417014,37.774444],[-122.417004,37.774474],[-122.416994,37.774503],[-122.416984,37.774533],[-122.416974,37.774562],[-122.416964,37.774592],[-122.416954,37.774622],[-122.416944,37.774652],[-122.416934,37.774681],[-122.416924,37.774711],[-122.416914,37.774741],[-122.416904,37.774771],[-122.416894,37.774801],[-122.416884,37.774831],[-122.416874,37.774861],[-122.416864,37.774891],[-122.416854,37.774921],[-122.416844,37.774951],[-122.416834,37.774981],[-122.416824,37.775011],[-122.416814,37.775041],[-122.416804,37.775071],[-122.416794,37.775101],[-122.416784,37.775131],[-122.416774,37.775161],[-122.416764,37.775191],[-122.416754,37.775221],[-122.416744,37.775251],[-122.416734,37.77528],[-122.416724,37.77531],[-122.416714,37.77534],[-122.416704,37.77537],[-122.416694,37.7754],[-122.416684,37.775429],[-122.416674,37.775459],[-122.416664,37.775489],[-122.416654,37.775518],[-122.416644,37.775548],[-122.416634,37.775577],[-122.416624,37.775607],[-122.416614,37.775636],[-122.416604,37.775665],[-122.416594,37.775695],[-122.416584,37.775724],[-122.416574,37.775753],[-122.416564,37.775782],[-122.416554,37.775811],[-122.416544,37.77584],[-122.416534,37.775868],[-122.416524,37.775897],[-122.416514,37.775926],[-122.416504,37.775954],[-122.416494,37.775982],[-122.416484,37.776011],[-122.416474,37.776039],[-122.416464,37.776067],[-122.416454,37.776095],[-122.416444,37.776123],[-122.416434,37.776151],[-122.416424,37.776178],[-122.416414,37.776206],[-122.416404,37.776233],[-122.416393,37.776261],[-122.416383,37.776288],[-122.416373,37.776315],[-122.416363,37.776342],[-122.416353,37.776368],[-122.416343,37.776395],[-122.416333,37.776421],[-122.416323,37.776448],[-122.416313,37.776474],[-122.416303,37.7765],[-122.416293,37.776526],[-122.416283,37.776552],[-122.416273,37.776577],[-122.416263,37.776603],[-122.416253,37.776628],[-122.416243,37.776653],[-122.416233,37.776678],[-122.416223,37.776703],[-122.416213,37.776728],[-122.416203,37.776752],[-122.416193,37.776776],[-122.416183,37.7768],[-122.416173,37.776824],[-122.416163,37.776848],[-122.416153,37.776871],[-122.416143,37.776895],[-122.416133,37.776918],[-122.416123,37.776941],[-122.416113,37.776964],[-122.416103,37.776986],[-122.416093,37.777009],[-122.416083,37.777031],[-122.416073,37.777053],[-122.416063,37.777075],[-122.416053,37.777096],[-122.416043,37.777118],[-122.416033,37.777139],[-122.416023,37.77716],[-122.416013,37.77718],[-122.416003,37.777201],[-122.415993,37.777221],[-122.415983,37.777241],[-122.415973,37.777261],[-122.415963,37.777281],[-122.415953,37.7773],[-122.415943,37.777319],[-122.415933,37.777338],[-122.415923,37.777357],[-122.415913,37.777375],[-122.415903,37.777393],[-122.415893,37.777411],[-122.415883,37.777429],[-122.415873,37.777447],[-122.415863,37.777464],[-122.415853,37.777481],[-122.415843,37.777498],[-122.415833,37.777514],[-122.415823,37.77753],[-122.415813,37.777546],[-122.415803,37.777562],[-122.415793,37.777577],[-122.415783,37.777593],[-122.415773,37.777608],[-122.415763,37.777622],[-122.415753,37.777637],[-122.415743,37.777651],[-122.415733,37.777665],[-122.415723,37.777679],[-122.415713,37.777692],[-122.415703,37.777705],[-122.415693,37.777718],[-122.415683,37.77773],[-122.415673,37.777743],[-122.415663,37.777755],[-122.415653,37.777766],[-122.415643,37.777778],[-122.415633,37.777789],[-122.415623,37.7778],[-122.415613,37.777811],[-122.415603,37.777821],[-122.415593,37.777831],[-122.415583,37.777841],[-122.415573,37.77785],[-122.415563,37.77786],[-122.415553,37.777869],[-122.415543,37.777877],[-122.415533,37.777886],[-122.415523,37.777894],[-122.415513,37.777901],[-122.415503,37.777909],[-122.415493,37.777916],[-122.415483,37.777923],[-122.415473,37.77793],[-122.415463,37.777936],[-122.415453,37.777942],[-122.415443,37.777948],[-122.415433,37.777953],[-122.415423,37.777958],[-122.415413,37.777963],[-122.415403,37.777968],[-122.415393,37.777972],[-122.415383,37.777976],[-122.415373,37.777979],[-122.415363,37.777983],[-122.415353,37.777986],[-122.415343,37.777989],[-122.415333,37.777991],[-122.415323,37.777993],[-122.415313,37.777995],[-122.415303,37.777997],[-122.415293,37.777998],[-122.415283,37.777999],[-122.415273,37.778],[-122.415263,37.778],[-122.415253,37.778],[-122.415243,37.778],[-122.415233,37.777999],[-122.415223,37.777998],[-122.415213,37.777997],[-122.415203,37.777996],[-122.415193,37.777994],[-122.415183,37.777992],[-122.415173,37.77799],[-122.415163,37.777987],[-122.415153,37.777984],[-122.415143,37.777981],[-122.415133,37.777977],[-122.415123,37.777974],[-122.415113,37.777969],[-122.415103,37.777965],[-122.415093,37.77796],[-122.415083,37.777955],[-122.415073,37.77795],[-122.415063,37.777944],[-122.415053,37.777938],[-122.415043,37.777932],[-122.415033,37.777926],[-122.415023,37.777919],[-122.415013,37.777912],[-122.415003,37.777905],[-122.414993,37.777897],[-122.414983,37.777889],[-122.414973,37.777881],[-122.414963,37.777872],[-122.414953,37.777863],[-122.414943,37.777854],[-122.414933,37.777845],[-122.414923,37.777835],[-122.414913,37.777825],[-122.414903,37.777815],[-122.414893,37.777805],[-122.414883,37.777794],[-122.414873,37.777783],[-122.414863,37.777771],[-122.414853,37.77776],[-122.414843,37.777748],[-122.414833,37.777736],[-122.414823,37.777723],[-122.414813,37.777711],[-122.414803,37.777698],[-122.414793,37.777684],[-122.414783,37.777671],[-122.414773,37.777657],[-122.414763,37.777643],[-122.414753,37.777629],[-122.414743,37.777614],[-122.414733,37.777599],[-122.414723,37.777584],[-122.414713,37.777569],[-122.414703,37.777553],[-122.414693,37.777537],[-122.414683,37.777521],[-122.414673,37.777505],[-122.414663,37.777488],[-122.414653,37.777471],[-122.414643,37.777454],[-122.414633,37.777437],[-122.414623,37.777419],[-122.414613,37.777401],[-122.414603,37.777383],[-122.414593,37.777365],[-122.414583,37.777346],[-122.414573,37.777327],[-122.414563,37.777308],[-122.414553,37.777289],[-122.414543,37.77727],[-122.414533,37.77725],[-122.414523,37.77723],[-122.414513,37.77721],[-122.414503,37.777189],[-122.414493,37.777169],[-122.414483,37.777148],[-122.414473,37.777127],[-122.414463,37.777105],[-122.414453,37.777084],[-122.414443,37.777062],[-122.414433,37.77704],[-122.414423,37.777018],[-122.414413,37.776996],[-122.414403,37.776974],[-122.414392,37.776951],[-122.414382,37.776928],[-122.414372,37.776905],[-122.414362,37.776882],[-122.414352,37.776858],[-122.414342,37.776835],[-122.414332,37.776811],[-122.414322,37.776787],[-122.414312,37.776762],[-122.414302,37.776738],[-122.414292,37.776714],[-122.414282,37.776689],[-122.414272,37.776664],[-122.414262,37.776639],[-122.414252,37.776614],[-122.414242,37.776588],[-122.414232,37.776563],[-122.414222,37.776537],[-122.414212,37.776511],[-122.414202,37.776485],[-122.414192,37.776459],[-122.414182,37.776433],[-122.414172,37.776406],[-122.414162,37.77638],[-122.414152,37.776353],[-122.414142,37.776326],[-122.414132,37.776299],[-122.414122,37.776272],[-122.414112,37.776245],[-122.414102,37.776218],[-122.414092,37.77619],[-122.414082,37.776163],[-122.414072,37.776135],[-122.414062,37.776107],[-122.414052,37.776079],[-122.414042,37.776051],[-122.414032,37.776023],[-122.414022,37.775995],[-122.414012,37.775966],[-122.414002,37.775938],[-122.413992,37.775909],[-122.413982,37.775881],[-122.413972,37.775852],[-122.413962,37.775823],[-122.413952,37.775794],[-122.413942,37.775765],[-122.413932,37.775736],[-122.413922,37.775707],[-122.413912,37.775678],[-122.413902,37.775649],[-122.413892,37.775619],[-122.413882,37.77559],[-122.413872,37.775561],[-122.413862,37.775531],[-122.413852,37.775502],[-122.413842,37.775472],[-122.413832,37.775442],[-122.413822,37.775413],[-122.413812,37.775383],[-122.413802,37.775353],[-122.413792,37.775323],[-122.413782,37.775293],[-122.413772,37.775264],[-122.413762,37.775234],[-122.413752,37.775204],[-122.413742,37.775174],[-122.413732,37.775144],[-122.413722,37.775114],[-122.413712,37.775084],[-122.413702,37.775054],[-122.413692,37.775024],[-122.413682,37.774994],[-122.413672,37.774964],[-122.413662,37.774934],[-122.413652,37.774904],[-122.413642,37.774874],[-122.413632,37.774844],[-122.413622,37.774814],[-122.413612,37.774784],[-122.413602,37.774754],[-122.413592,37.774724],[-122.413582,37.774694],[-122.413572,37.774665],[-122.413562,37.774635],[-122.413552,37.774605],[-122.413542,37.774575],[-122.413532,37.774546],[-122.413522,37.774516],[-122.413512,37.774486],[-122.413502,37.774457],[-122.413492,37.774427],[-122.413482,37.774398],[-122.413472,37.774369],[-122.413462,37.774339],[-122.413452,37.77431],[-122.413442,37.774281],[-122.413432,37.774252],[-122.413422,37.774223],[-122.413412,37.774194],[-122.413402,37.774165],[-122.413392,37.774136],[-122.413382,37.774108],[-122.413372,37.774079],[-122.413362,37.774051],[-122.413352,37.774022],[-122.413342,37.773994],[-122.413332,37.773966],[-122.413322,37.773937],[-122.413312,37.773909],[-122.413302,37.773882],[-122.413292,37.773854],[-122.413282,37.773826],[-122.413272,37.773799],[-122.413262,37.773771],[-122.413252,37.773744],[-122.413242,37.773717],[-122.413232,37.77369],[-122.413222,37.773663],[-122.413212,37.773636],[-122.413202,37.773609],[-122.413192,37.773583],[-122.413182,37.773556],[-122.413172,37.77353],[-122.413162,37.773504],[-122.413152,37.773478],[-122.413142,37.773452],[-122.413132,37.773427],[-122.413122,37.773401],[-122.413112,37.773376],[-122.413102,37.773351],[-122.413092,37.773326],[-122.413082,37.773301],[-122.413072,37.773276],[-122.413062,37.773252],[-122.413052,37.773228],[-122.413042,37.773204],[-122.413032,37.77318],[-122.413022,37.773156],[-122.413012,37.773132],[-122.413002,37.773109],[-122.412992,37.773086],[-122.412982,37.773063],[-122.412972,37.77304],[-122.412962,37.773017],[-122.412952,37.772995],[-122.412942,37.772973],[-122.412932,37.772951],[-122.412922,37.772929],[-122.412912,37.772907],[-122.412902,37.772886],[-122.412892,37.772865],[-122.412882,37.772844],[-122.412872,37.772823],[-122.412862,37.772802],[-122.412852,37.772782],[-122.412842,37.772762],[-122.412832,37.772742],[-122.412822,37.772722],[-122.412812,37.772703],[-122.412802,37.772684],[-122.412792,37.772665],[-122.412782,37.772646],[-122.412772,37.772628],[-122.412762,37.772609],[-122.412752,37.772591],[-122.412742,37.772574],[-122.412732,37.772556],[-122.412722,37.772539],[-122.412712,37.772522],[-122.412702,37.772505],[-122.412692,37.772489],[-122.412682,37.772472],[-122.412672,37.772456],[-122.412662,37.77244],[-122.412652,37.772425],[-122.412642,37.77241],[-122.412632,37.772395],[-122.412622,37.77238],[-122.412612,37.772365],[-122.412602,37.772351],[-122.412592,37.772337],[-122.412582,37.772324],[-122.412572,37.77231],[-122.412562,37.772297],[-122.412552,37.772284],[-122.412542,37.772272],[-122.412532,37.772259],[-122.412522,37.772247],[-122.412512,37.772235],[-122.412502,37.772224],[-122.412492,37.772213],[-122.412482,37.772202],[-122.412472,37.772191],[-122.412462,37.772181],[-122.412452,37.77217],[-122.412442,37.772161],[-122.412432,37.772151],[-122.412422,37.772142],[-122.412412,37.772133],[-122.412402,37.772124],[-122.412391,37.772116],[-122.412381,37.772108],[-122.412371,37.7721],[-122.412361,37.772092],[-122.412351,37.772085],[-122.412341,37.772078],[-122.412331,37.772071],[-122.412321,37.772065],[-122.412311,37.772059],[-122.412301,37.772053],[-122.412291,37.772048],[-122.412281,37.772043],[-122.412271,37.772038],[-122.412261,37.772033],[-122.412251,37.772029],[-122.412241,37.772025],[-122.412231,37.772021],[-122.412221,37.772018],[-122.412211,37.772015],[-122.412201,37.772012],[-122.412191,37.772009],[-122.412181,37.772007],[-122.412171,37.772005],[-122.412161,37.772004],[-122.412151,37.772002],[-122.412141,37.772001],[-122.412131,37.772001],[-122.412121,37.772],[-122.412111,37.772],[-122.412101,37.772],[-122.412091,37.772001],[-122.412081,37.772001],[-122.412071,37.772003],[-122.412061,37.772004],[-122.412051,37.772006],[-122.412041,37.772008],[-122.412031,37.77201],[-122.412021,37.772012],[-122.412011,37.772015],[-122.412001,37.772019],[-122.411991,37.772022],[-122.411981,37.772026],[-122.411971,37.77203],[-122.411961,37.772034],[-122.411951,37.772039],[-122.411941,37.772044],[-122.411931,37.772049],[-122.411921,37.772055],[-122.411911,37.772061],[-122.411901,37.772067],[-122.411891,37.772073],[-122.411881,37.77208],[-122.411871,37.772087],[-122.411861,37.772094],[-122.411851,37.772102],[-122.411841,37.77211],[-122.411831,37.772118],[-122.411821,37.772126],[-122.411811,37.772135],[-122.411801,37.772144],[-122.411791,37.772153],[-122.411781,37.772163],[-122.411771,37.772173],[-122.411761,37.772183],[-122.411751,37.772194],[-122.411741,37.772204],[-122.411731,37.772215],[-122.411721,37.772227],[-122.411711,37.772238],[-122.411701,37.77225],[-122.411691,37.772262],[-122.411681,37.772275],[-122.411671,37.772287],[-122.411661,37.7723],[-122.411651,37.772313],[-122.411641,37.772327],[-122.411631,37.772341],[-122.411621,37.772355],[-122.411611,37.772369],[-122.411601,37.772384],[-122.411591,37.772398],[-122.411581,37.772413],[-122.411571,37.772429],[-122.411561,37.772444],[-122.411551,37.77246],[-122.411541,37.772476],[-122.411531,37.772493],[-122.411521,37.772509],[-122.411511,37.772526],[-122.411501,37.772543],[-122.411491,37.772561],[-122.411481,37.772578],[-122.411471,37.772596],[-122.411461,37.772614],[-122.411451,37.772632],[-122.411441,37.772651],[-122.411431,37.77267],[-122.411421,37.772689],[-122.411411,37.772708],[-122.411401,37.772727],[-122.411391,37.772747],[-122.411381,37.772767],[-122.411371,37.772787],[-122.411361,37.772807],[-122.411351,37.772828],[-122.411341,37.772849],[-122.411331,37.77287],[-122.411321,37.772891],[-122.411311,37.772913],[-122.411301,37.772934],[-122.411291,37.772956],[-122.411281,37.772978],[-122.411271,37.773],[-122.411261,37.773023],[-122.411251,37.773046],[-122.411241,37.773068],[-122.411231,37.773091],[-122.411221,37.773115],[-122.411211,37.773138],[-122.411201,37.773162],[-122.411191,37.773186],[-122.411181,37.773209],[-122.411171,37.773234],[-122.411161,37.773258],[-122.411151,37.773282],[-122.411141,37.773307],[-122.411131,37.773332],[-122.411121,37.773357],[-122.411111,37.773382],[-122.411101,37.773408],[-122.411091,37.773433],[-122.411081,37.773459],[-122.411071,37.773485],[-122.411061,37.773511],[-122.411051,37.773537],[-122.411041,37.773563],[-122.411031,37.773589],[-122.411021,37.773616],[-122.411011,37.773643],[-122.411001,37.773669],[-122.410991,37.773696],[-122.410981,37.773723],[-122.410971,37.773751],[-122.410961,37.773778],[-122.410951,37.773805],[-122.410941,37.773833],[-122.410931,37.773861],[-122.410921,37.773888],[-122.410911,37.773916],[-122.410901,37.773944],[-122.410891,37.773973],[-122.410881,37.774001],[-122.410871,37.774029],[-122.410861,37.774058],[-122.410851,37.774086],[-122.410841,37.774115],[-122.410831,37.774143],[-122.410821,37.774172],[-122.410811,37.774201],[-122.410801,37.77423],[-122.410791,37.774259],[-122.410781,37.774288],[-122.410771,37.774317],[-122.410761,37.774347],[-122.410751,37.774376],[-122.410741,37.774405],[-122.410731,37.774435],[-122.410721,37.774464],[-122.410711,37.774494],[-122.410701,37.774523],[-122.410691,37.774553],[-122.410681,37.774583],[-122.410671,37.774612],[-122.410661,37.774642],[-122.410651,37.774672],[-122.410641,37.774702],[-122.410631,37.774732],[-122.410621,37.774762],[-122.410611,37.774792],[-122.410601,37.774821],[-122.410591,37.774851],[-122.410581,37.774881],[-122.410571,37.774911],[-122.410561,37.774941],[-122.410551,37.774971],[-122.410541,37.775001],[-122.410531,37.775031],[-122.410521,37.775061],[-122.410511,37.775091],[-122.410501,37.775121],[-122.410491,37.775151],[-122.410481,37.775181],[-122.410471,37.775211],[-122.410461,37.775241],[-122.410451,37.775271],[-122.410441,37.775301],[-122.410431,37.775331],[-122.410421,37.77536],[-122.410411,37.77539],[-122.410401,37.77542],[-122.41039,37.77545],[-122.41038,37.775479],[-122.41037,37.775509],[-122.41036,37.775538],[-122.41035,37.775568],[-122.41034,37.775597],[-122.41033,37.775627],[-122.41032,37.775656],[-122.41031,37.775685],[-122.4103,37.775714],[-122.41029,37.775744],[-122.41028,37.775773],[-122.41027,37.775801],[-122.41026,37.77583],[-122.41025,37.775859],[-122.41024,37.775888],[-122.41023,37.775916],[-122.41022,37.775945],[-122.41021,37.775973],[-122.4102,37.776002],[-122.41019,37.77603],[-122.41018,37.776058],[-122.41017,37.776086],[-122.41016,37.776114],[-122.41015,37.776142],[-122.41014,37.776169],[-122.41013,37.776197],[-122.41012,37.776224],[-122.41011,37.776252],[-122.4101,37.776279],[-122.41009,37.776306],[-122.41008,37.776333],[-122.41007,37.77636],[-122.41006,37.776387],[-122.41005,37.776413],[-122.41004,37.776439],[-122.41003,37.776466],[-122.41002,37.776492],[-122.41001,37.776518],[-122.41,37.776544],[-122.40999,37.776569],[-122.40998,37.776595],[-122.40997,37.77662],[-122.40996,37.776645],[-122.40995,37.77667],[-122.40994,37.776695],[-122.40993,37.77672],[-122.40992,37.776744],[-122.40991,37.776769],[-122.4099,37.776793],[-122.40989,37.776817],[-122.40988,37.77684],[-122.40987,37.776864],[-122.40986,37.776887],[-122.40985,37.776911],[-122.40984,37.776934],[-122.40983,37.776957],[-122.40982,37.776979],[-122.40981,37.777002],[-122.4098,37.777024],[-122.40979,37.777046],[-122.40978,37.777068],[-122.40977,37.777089],[-122.40976,37.777111],[-122.40975,37.777132],[-122.40974,37.777153],[-122.40973,37.777174],[-122.40972,37.777194],[-122.40971,37.777215],[-122.4097,37.777235],[-122.40969,37.777255],[-122.40968,37.777274],[-122.40967,37.777294],[-122.40966,37.777313],[-122.40965,37.777332],[-122.40964,37.777351],[-122.40963,37.777369],[-122.40962,37.777388],[-122.40961,37.777406],[-122.4096,37.777423],[-122.40959,37.777441],[-122.40958,37.777458],[-122.40957,37.777475],[-122.40956,37.777492],[-122.40955,37.777509],[-122.40954,37.777525],[-122.40953,37.777541],[-122.40952,37.777557],[-122.40951,37.777573],[-122.4095,37.777588],[-122.40949,37.777603],[-122.40948,37.777618],[-122.40947,37.777632],[-122.40946,37.777647],[-122.40945,37.77766],[-122.40944,37.777674],[-122.40943,37.777688],[-122.40942,37.777701],[-122.40941,37.777714],[-122.4094,37.777726]]}}]}
