{"type":"FeatureCollection","features":[{"type":"Feature","id":0,"properties":{"revision":0},"geometry":{"type":"LineString","coordinates":[[-122.4294,37.7749],[-122.42939,37.77493],[-122.42938,37.77496],[-122.42937,37.77499],[-122.42936,37.77502],[-122.42935,37.77505],[-122.42934,37.77508],[-122.42933,37.77511],[-122.42932,37.77514],[-122.42931,37.77517],[-122.4293,37.7752],[-122.42929,37.775229],[-122.42928,37.775259],[-122.42927,37.775289],[-122.42926,37.775319],[-122.42925,37.775348],[-122.42924,37.775378],[-122.42923,37.775408],[-122.42922,37.775437],[-122.42921,37.775467],[-122.4292,37.775496],[-122.42919,37.775525],[-122.42918,37.775555],[-122.42917,37.775584],[-122.42916,37.775613],[-122.42915,37.775642],[-122.42914,37.775671],[-122.42913,37.7757],[-122.42912,37.775729],[-122.42911,37.775758],[-122.4291,37.775787],[-122.42909,37.775815],[-122.42908,37.775844],[-122.42907,37.775872],[-122.42906,37.7759],[-122.42905,37.775929],[-122.42904,37.775957],[-122.42903,37.775985],[-122.42902,37.776013],[-122.42901,37.776041],[-122.429,37.776068],[-122.42899,37.776096],[-122.42898,37.776123],[-122.42897,37.776151],[-122.42896,37.776178],[-122.42895,37.776205],[-122.42894,37.776232],[-122.42893,37.776259],[-122.42892,37.776285],[-122.42891,37.776312],[-122.4289,37.776338],[-122.42889,37.776365],[-122.42888,37.776391],[-122.42887,37.776417],[-122.42886,37.776442],[-122.42885,37.776468],[-122.42884,37.776494],[-122.42883,37.776519],[-122.42882,37.776544],[-122.42881,37.776569],[-122.4288,37.776594],[-122.42879,37.776619],[-122.42878,37.776643],[-122.42877,37.776667],[-122.42876,37.776692],[-122.42875,37.776716],[-122.42874,37.776739],[-122.42873,37.776763],[-122.42872,37.776786],[-122.42871,37.77681],[-122.4287,37.776833],[-122.42869,37.776856],[-122.42868,37.776878],[-122.42867,37.776901],[-122.42866,37.776923],[-122.42865,37.776945],[-122.42864,37.776967],[-122.42863,37.776988],[-122.42862,37.77701],[-122.42861,37.777031],[-122.4286,37.777052],[-122.42859,37.777073],[-122.42858,37.777093],[-122.42857,37.777114],[-122.42856,37.777134],[-122.42855,37.777154],[-122.42854,37.777174],[-122.42853,37.777193],[-122.42852,37.777212],[-122.42851,37.777231],[-122.4285,37.77725],[-122.42849,37.777269],[-122.42848,37.777287],[-122.42847,37.777305],[-122.42846,37.777323],[-122.42845,37.77734],[-122.42844,37.777358],[-122.42843,37.777375],[-122.42842,37.777391],[-122.42841,37.777408],[-122.428399,37.777424],[-122.428389,37.77744],[-122.428379,37.777456],[-122.428369,37.777472],[-122.428359,37.777487],[-122.428349,37.777502],[-122.428339,37.777517],[-122.428329,37.777532],[-122.428319,37.777546],[-122.428309,37.77756],[-122.428299,37.777574],[-122.428289,37.777587],[-122.428279,37.7776],[-122.428269,37.777613],[-122.428259,37.777626],[-122.428249,37.777638],[-122.428239,37.77765],[-122.428229,37.777662],[-122.428219,37.777674],[-122.428209,37.777685],[-122.428199,37.777696],[-122.428189,37.777707],[-122.428179,37.777717],[-122.428169,37.777727],[-122.428159,37.777737],[-122.428149,37.777747],[-122.428139,37.777756],[-122.428129,37.777765],[-122.428119,37.777774],[-122.428109,37.777783],[-122.428099,37.777791],[-122.428089,37.777799],[-122.428079,37.777806],[-122.428069,37.777813],[-122.428059,37.77782],[-122.428049,37.777827],[-122.428039,37.777834],[-122.428029,37.77784],[-122.428019,37.777846],[-122.428009,37.777851],[-122.427999,37.777856],[-122.427989,37.777861],[-122.427979,37.777866],[-122.427969,37.77787],[-122.427959,37.777874],[-122.427949,37.777878],[-122.427939,37.777882],[-122.427929,37.777885],[-122.427919,37.777888],[-122.427909,37.77789],[-122.427899,37.777892],[-122.427889,37.777894],[-122.427879,37.777896],[-122.427869,37.777898],[-122.427859,37.777899],[-122.427849,37.777899],[-122.427839,37.7779],[-122.427829,37.7779],[-122.427819,37.7779],[-122.427809,37.777899],[-122.427799,37.777899],[-122.427789,37.777898],[-122.427779,37.777896],[-122.427769,37.777895],[-122.427759,37.777893],[-122.427749,37.777891],[-122.427739,37.777888],[-122.427729,37.777885],[-122.427719,37.777882],[-122.427709,37.777879],[-122.427699,37.777875],[-122.427689,37.777871],[-122.427679,37.777867],[-122.427669,37.777862],[-122.427659,37.777857],[-122.427649,37.777852],[-122.427639,37.777846],[-122.427629,37.777841],[-122.427619,37.777835],[-122.427609,37.777828],[-122.427599,37.777822],[-122.427589,37.777815],[-122.427579,37.777807],[-122.427569,37.7778],[-122.427559,37.777792],[-122.427549,37.777784],[-122.427539,37.777775],[-122.427529,37.777767],[-122.427519,37.777758],[-122.427509,37.777748],[-122.427499,37.777739],[-122.427489,37.777729],[-122.427479,37.777719],[-122.427469,37.777709],[-122.427459,37.777698],[-122.427449,37.777687],[-122.427439,37.777676],[-122.427429,37.777664],[-122.427419,37.777652],[-122.427409,37.77764],[-122.427399,37.777628],[-122.427389,37.777615],[-122.427379,37.777602],[-122.427369,37.777589],[-122.427359,37.777576],[-122.427349,37.777562],[-122.427339,37.777548],[-122.427329,37.777534],[-122.427319,37.777519],[-122.427309,37.777505],[-122.427299,37.77749],[-122.427289,37.777474],[-122.427279,37.777459],[-122.427269,37.777443],[-122.427259,37.777427],[-122.427249,37.777411],[-122.427239,37.777394],[-122.427229,37.777377],[-122.427219,37.77736],[-122.427209,37.777343],[-122.427199,37.777325],[-122.427189,37.777308],[-122.427179,37.77729],[-122.427169,37.777271],[-122.427159,37.777253],[-122.427149,37.777234],[-122.427139,37.777215],[-122.427129,37.777196],[-122.427119,37.777177],[-122.427109,37.777157],[-122.427099,37.777137],[-122.427089,37.777117],[-122.427079,37.777097],[-122.427069,37.777076],[-122.427059,37.777055],[-122.427049,37.777034],[-122.427039,37.777013],[-122.427029,37.776992],[-122.427019,37.77697],[-122.427009,37.776948],[-122.426999,37.776926],[-122.426989,37.776904],[-122.426979,37.776882],[-122.426969,37.776859],[-122.426959,37.776836],[-122.426949,37.776813],[-122.426939,37.77679],[-122.426929,37.776767],[-122.426919,37.776743],[-122.426909,37.776719],[-122.426899,37.776695],[-122.426889,37.776671],[-122.426879,37.776647],[-122.426869,37.776623],[-122.426859,37.776598],[-122.426849,37.776573],[-122.426839,37.776548],[-122.426829,37.776523],[-122.426819,37.776498],[-122.426809,37.776472],[-122.426799,37.776447],[-122.426789,37.776421],[-122.426779,37.776395],[-122.426769,37.776369],[-122.426759,37.776342],[-122.426749,37.776316],[-122.426739,37.77629],[-122.426729,37.776263],[-122.426719,37.776236],[-122.426709,37.776209],[-122.426699,37.776182],[-122.426689,37.776155],[-122.426679,37.776128],[-122.426669,37.7761],[-122.426659,37.776073],[-122.426649,37.776045],[-122.426639,37.776017],[-122.426629,37.775989],[-122.426619,37.775961],[-122.426609,37.775933],[-122.426599,37.775905],[-122.426589,37.775877],[-122.426579,37.775848],[-122.426569,37.77582],[-122.426559,37.775791],[-122.426549,37.775762],[-122.426539,37.775734],[-122.426529,37.775705],[-122.426519,37.775676],[-122.426509,37.775647],[-122.426499,37.775618],[-122.426489,37.775589],[-122.426479,37.775559],[-122.426469,37.77553],[-122.426459,37.775501],[-122.426449,37.775471],[-122.426439,37.775442],[-122.426429,37.775412],[-122.426419,37.775383],[-122.426409,37.775353],[-122.426398,37.775323],[-122.426388,37.775294],[-122.426378,37.775264],[-122.426368,37.775234],[-122.426358,37.775204],[-122.426348,37.775174],[-122.426338,37.775145],[-122.426328,37.775115],[-122.426318,37.775085],[-122.426308,37.775055],[-122.426298,37.775025],[-122.426288,37.774995],[-122.426278,37.774965],[-122.426268,37.774935],[-122.426258,37.774905],[-122.426248,37.774875],[-122.426238,37.774845],[-122.426228,37.774815],[-122.426218,37.774785],[-122.426208,37.774755],[-122.426198,37.774725],[-122.426188,37.774695],[-122.426178,37.774665],[-122.426168,37.774635],[-122.426158,37.774605],[-122.426148,37.774575],[-122.426138,37.774546],[-122.426128,37.774516],[-122.426118,37.774486],[-122.426108,37.774456],[-122.426098,37.774427],[-122.426088,37.774397],[-122.426078,37.774368],[-122.426068,37.774338],[-122.426058,37.774309],[-122.426048,37.774279],[-122.426038,37.77425],[-122.426028,37.774221],[-122.426018,37.774192],[-122.426008,37.774162],[-122.425998,37.774133],[-122.425988,37.774104],[-122.425978,37.774076],[-122.425968,37.774047],[-122.425958,37.774018],[-122.425948,37.773989],[-122.425938,37.773961],[-122.425928,37.773932],[-122.425918,37.773904],[-122.425908,37.773876],[-122.425898,37.773848],[-122.425888,37.77382],[-122.425878,37.773792],[-122.425868,37.773764],[-122.425858,37.773736],[-122.425848,37.773709],[-122.425838,37.773681],[-122.425828,37.773654],[-122.425818,37.773627],[-122.425808,37.773599],[-122.425798,37.773572],[-122.425788,37.773546],[-122.425778,37.773519],[-122.425768,37.773492],[-122.425758,37.773466],[-122.425748,37.77344],[-122.425738,37.773414],[-122.425728,37.773388],[-122.425718,37.773362],[-122.425708,37.773336],[-122.425698,37.77331],[-122.425688,37.773285],[-122.425678,37.77326],[-122.425668,37.773235],[-122.425658,37.77321],[-122.425648,37.773185],[-122.425638,37.773161],[-122.425628,37.773136],[-122.425618,37.773112],[-122.425608,37.773088],[-122.425598,37.773064],[-122.425588,37.773041],[-122.425578,37.773017],[-122.425568,37.772994],[-122.425558,37.772971],[-122.425548,37.772948],[-122.425538,37.772925],[-122.425528,37.772903],[-122.425518,37.772881],[-122.425508,37.772859],[-122.425498,37.772837],[-122.425488,37.772815],[-122.425478,37.772794],[-122.425468,37.772772],[-122.425458,37.772751],[-122.425448,37.77273],[-122.425438,37.77271],[-122.425428,37.772689],[-122.425418,37.772669],[-122.425408,37.772649],[-122.425398,37.77263],[-122.425388,37.77261],[-122.425378,37.772591],[-122.425368,37.772572],[-122.425358,37.772553],[-122.425348,37.772534],[-122.425338,37.772516],[-122.425328,37.772498],[-122.425318,37.77248],[-122.425308,37.772463],[-122.425298,37.772445],[-122.425288,37.772428],[-122.425278,37.772411],[-122.425268,37.772395],[-122.425258,37.772378],[-122.425248,37.772362],[-122.425238,37.772346],[-122.425228,37.772331],[-122.425218,37.772315],[-122.425208,37.7723],[-122.425198,37.772285],[-122.425188,37.772271],[-122.425178,37.772256],[-122.425168,37.772242],[-122.425158,37.772229],[-122.425148,37.772215],[-122.425138,37.772202],[-122.425128,37.772189],[-122.425118,37.772176],[-122.425108,37.772164],[-122.425098,37.772152],[-122.425088,37.77214],[-122.425078,37.772128],[-122.425068,37.772117],[-122.425058,37.772106],[-122.425048,37.772095],[-122.425038,37.772084],[-122.425028,37.772074],[-122.425018,37.772064],[-122.425008,37.772055],[-122.424998,37.772045],[-122.424988,37.772036],[-122.424978,37.772027],[-122.424968,37.772019],[-122.424958,37.772011],[-122.424948,37.772003],[-122.424938,37.771995],[-122.424928,37.771988],[-122.424918,37.771981],[-122.424908,37.771974],[-122.424898,37.771967],[-122.424888,37.771961],[-122.424878,37.771955],[-122.424868,37.77195],[-122.424858,37.771944],[-122.424848,37.771939],[-122.424838,37.771935],[-122.424828,37.77193],[-122.424818,37.771926],[-122.424808,37.771922],[-122.424798,37.771919],[-122.424788,37.771916],[-122.424778,37.771913],[-122.424768,37.77191],[-122.424758,37.771908],[-122.424748,37.771906],[-122.424738,37.771904],[-122.424728,37.771903],[-122.424718,37.771902],[-122.424708,37.771901],[-122.424698,37.7719],[-122.424688,37.7719],[-122.424678,37.7719],[-122.424668,37.7719],[-122.424658,37.771901],[-122.424648,37.771902],[-122.424638,37.771903],[-122.424628,37.771905],[-122.424618,37.771907],[-122.424608,37.771909],[-122.424598,37.771912],[-122.424588,37.771914],[-122.424578,37.771917],[-122.424568,37.771921],[-122.424558,37.771924],[-122.424548,37.771928],[-122.424538,37.771933],[-122.424528,37.771937],[-122.424518,37.771942],[-122.424508,37.771947],[-122.424498,37.771953],[-122.424488,37.771958],[-122.424478,37.771964],[-122.424468,37.771971],[-122.424458,37.771977],[-122.424448,37.771984],[-122.424438,37.771991],[-122.424428,37.771999],[-122.424418,37.772007],[-122.424408,37.772015],[-122.424397,37.772023],[-122.424387,37.772032],[-122.424377,37.772041],[-122.424367,37.77205],[-122.424357,37.77206],[-122.424347,37.772069],[-122.424337,37.772079],[-122.424327,37.77209],[-122.424317,37.7721],[-122.424307,37.772111],[-122.424297,37.772123],[-122.424287,37.772134],[-122.424277,37.772146],[-122.424267,37.772158],[-122.424257,37.77217],[-122.424247,37.772183],[-122.424237,37.772196],[-122.424227,37.772209],[-122.424217,37.772222],[-122.424207,37.772236],[-122.424197,37.77225],[-122.424187,37.772264],[-122.424177,37.772278],[-122.424167,37.772293],[-122.424157,37.772308],[-122.424147,37.772323],[-122.424137,37.772339],[-122.424127,37.772354],[-122.424117,37.77237],[-122.424107,37.772387],[-122.424097,37.772403],[-122.424087,37.77242],[-122.424077,37.772437],[-122.424067,37.772454],[-122.424057,37.772472],[-122.424047,37.772489],[-122.424037,37.772507],[-122.424027,37.772526],[-122.424017,37.772544],[-122.424007,37.772563],[-122.423997,37.772582],[-122.423987,37.772601],[-122.423977,37.77262],[-122.423967,37.77264],[-122.423957,37.77266],[-122.423947,37.77268],[-122.423937,37.7727],[-122.423927,37.772721],[-122.423917,37.772741],[-122.423907,37.772762],[-122.423897,37.772783],[-122.423887,37.772805],[-122.423877,37.772826],[-122.423867,37.772848],[-122.423857,37.77287],[-122.423847,37.772892],[-122.423837,37.772915],[-122.423827,37.772937],[-122.423817,37.77296],[-122.423807,37.772983],[-122.423797,37.773006],[-122.423787,37.77303],[-122.423777,37.773053],[-122.423767,37.773077],[-122.423757,37.773101],[-122.423747,37.773125],[-122.423737,37.773149],[-122.423727,37.773174],[-122.423717,37.773198],[-122.423707,37.773223],[-122.423697,37.773248],[-122.423687,37.773273],[-122.423677,37.773298],[-122.423667,37.773324],[-122.423657,37.773349],[-122.423647,37.773375],[-122.423637,37.773401],[-122.423627,37.773427],[-122.423617,37.773453],[-122.423607,37.77348],[-122.423597,37.773506],[-122.423587,37.773533],[-122.423577,37.77356],[-122.423567,37.773587],[-122.423557,37.773614],[-122.423547,37.773641],[-122.423537,37.773668],[-122.423527,37.773695],[-122.423517,37.773723],[-122.423507,37.773751],[-122.423497,37.773778],[-122.423487,37.773806],[-122.423477,37.773834],[-122.423467,37.773862],[-122.423457,37.773891],[-122.423447,37.773919],[-122.423437,37.773947],[-122.423427,37.773976],[-122.423417,37.774004],[-122.423407,37.774033],[-122.423397,37.774062],[-122.423387,37.774091],[-122.423377,37.77412],[-122.423367,37.774149],[-122.423357,37.774178],[-122.423347,37.774207],[-122.423337,37.774236],[-122.423327,37.774265],[-122.423317,37.774295],[-122.423307,37.774324],[-122.423297,37.774354],[-122.423287,37.774383],[-122.423277,37.774413],[-122.423267,37.774442],[-122.423257,37.774472],[-122.423247,37.774502],[-122.423237,37.774531],[-122.423227,37.774561],[-122.423217,37.774591],[-122.423207,37.774621],[-122.423197,37.774651],[-122.423187,37.774681],[-122.423177,37.774711],[-122.423167,37.774741],[-122.423157,37.77477],[-122.423147,37.7748],[-122.423137,37.77483],[-122.423127,37.77486],[-122.423117,37.77489],[-122.423107,37.77492],[-122.423097,37.77495],[-122.423087,37.77498],[-122.423077,37.77501],[-122.423067,37.77504],[-122.423057,37.77507],[-122.423047,37.7751],[-122.423037,37.77513],[-122.423027,37.77516],[-122.423017,37.77519],[-122.423007,37.77522],[-122.422997,37.77525],[-122.422987,37.775279],[-122.422977,37.775309],[-122.422967,37.775339],[-122.422957,37.775369],[-122.422947,37.775398],[-122.422937,37.775428],[-122.422927,37.775457],[-122.422917,37.775487],[-122.422907,37.775516],[-122.422897,37.775545],[-122.422887,37.775575],[-122.422877,37.775604],[-122.422867,37.775633],[-122.422857,37.775662],[-122.422847,37.775691],[-122.422837,37.77572],[-122.422827,37.775749],[-122.422817,37.775777],[-122.422807,37.775806],[-122.422797,37.775835],[-122.422787,37.775863],[-122.422777,37.775891],[-122.422767,37.77592],[-122.422757,37.775948],[-122.422747,37.775976],[-122.422737,37.776004],[-122.422727,37.776032],[-122.422717,37.776059],[-122.422707,37.776087],[-122.422697,37.776115],[-122.422687,37.776142],[-122.422677,37.776169],[-122.422667,37.776196],[-122.422657,37.776223],[-122.422647,37.77625],[-122.422637,37.776277],[-122.422627,37.776303],[-122.422617,37.77633],[-122.422607,37.776356],[-122.422597,37.776382],[-122.422587,37.776408],[-122.422577,37.776434],[-122.422567,37.77646],[-122.422557,37.776485],[-122.422547,37.776511],[-122.422537,37.776536],[-122.422527,37.776561],[-122.422517,37.776586],[-122.422507,37.776611],[-122.422497,37.776635],[-122.422487,37.77666],[-122.422477,37.776684],[-122.422467,37.776708],[-122.422457,37.776732],[-122.422447,37.776755],[-122.422437,37.776779],[-122.422427,37.776802],[-122.422417,37.776825],[-122.422407,37.776848],[-122.422396,37.776871],[-122.422386,37.776893],[-122.422376,37.776916],[-122.422366,37.776938],[-122.422356,37.77696],[-122.422346,37.776982],[-122.422336,37.777003],[-122.422326,37.777024],[-122.422316,37.777045],[-122.422306,37.777066],[-122.422296,37.777087],[-122.422286,37.777107],[-122.422276,37.777128],[-122.422266,37.777148],[-122.422256,37.777167],[-122.422246,37.777187],[-122.422236,37.777206],[-122.422226,37.777225],[-122.422216,37.777244],[-122.422206,37.777263],[-122.422196,37.777281],[-122.422186,37.777299],[-122.422176,37.777317],[-122.422166,37.777335],[-122.422156,37.777352],[-122.422146,37.777369],[-122.422136,37.777386],[-122.422126,37.777403],[-122.422116,37.777419],[-122.422106,37.777435],[-122.422096,37.777451],[-122.422086,37.777467],[-122.422076,37.777482],[-122.422066,37.777498],[-122.422056,37.777512],[-122.422046,37.777527],[-122.422036,37.777541],[-122.422026,37.777555],[-122.422016,37.777569],[-122.422006,37.777583],[-122.421996,37.777596],[-122.421986,37.777609],[-122.421976,37.777622],[-122.421966,37.777634],[-122.421956,37.777647],[-122.421946,37.777659],[-122.421936,37.77767],[-122.421926,37.777682],[-122.421916,37.777693],[-122.421906,37.777703],[-122.421896,37.777714],[-122.421886,37.777724],[-122.421876,37.777734],[-122.421866,37.777744],[-122.421856,37.777753],[-122.421846,37.777762],[-122.421836,37.777771],[-122.421826,37.77778],[-122.421816,37.777788],[-122.421806,37.777796],[-122.421796,37.777804],[-122.421786,37.777811],[-122.421776,37.777818],[-122.421766,37.777825],[-122.421756,37.777832],[-122.421746,37.777838],[-122.421736,37.777844],[-122.421726,37.777849],[-122.421716,37.777855],[-122.421706,37.77786],[-122.421696,37.777865],[-122.421686,37.777869],[-122.421676,37.777873],[-122.421666,37.777877],[-122.421656,37.777881],[-122.421646,37.777884],[-122.421636,37.777887],[-122.421626,37.777889],[-122.421616,37.777892],[-122.421606,37.777894],[-122.421596,37.777896],[-122.421586,37.777897],[-122.421576,37.777898],[-122.421566,37.777899],[-122.421556,37.7779],[-122.421546,37.7779],[-122.421536,37.7779],[-122.421526,37.7779],[-122.421516,37.777899],[-122.421506,37.777898],[-122.421496,37.777897],[-122.421486,37.777895],[-122.421476,37.777893],[-122.421466,37.777891],[-122.421456,37.777889],[-122.421446,37.777886],[-122.421436,37.777883],[-122.421426,37.77788],[-122.421416,37.777876],[-122.421406,37.777872],[-122.421396,37.777868],[-122.421386,37.777864],[-122.421376,37.777859],[-122.421366,37.777854],[-122.421356,37.777848],[-122.421346,37.777843],[-122.421336,37.777837],[-122.421326,37.77783],[-122.421316,37.777824],[-122.421306,37.777817],[-122.421296,37.77781],[-122.421286,37.777802],[-122.421276,37.777794],[-122.421266,37.777786],[-122.421256,37.777778],[-122.421246,37.77777],[-122.421236,37.777761],[-122.421226,37.777751],[-122.421216,37.777742],[-122.421206,37.777732],[-122.421196,37.777722],[-122.421186,37.777712],[-122.421176,37.777701],[-122.421166,37.77769],[-122.421156,37.777679],[-122.421146,37.777668],[-122.421136,37.777656],[-122.421126,37.777644],[-122.421116,37.777632],[-122.421106,37.777619],[-122.421096,37.777607],[-122.421086,37.777593],[-122.421076,37.77758],[-122.421066,37.777566],[-122.421056,37.777553],[-122.421046,37.777538],[-122.421036,37.777524],[-122.421026,37.777509],[-122.421016,37.777494],[-122.421006,37.777479],[-122.420996,37.777464],[-122.420986,37.777448],[-122.420976,37.777432],[-122.420966,37.777416],[-122.420956,37.777399],[-122.420946,37.777383],[-122.420936,37.777366],[-122.420926,37.777349],[-122.420916,37.777331],[-122.420906,37.777313],[-122.420896,37.777295],[-122.420886,37.777277],[-122.420876,37.777259],[-122.420866,37.77724],[-122.420856,37.777221],[-122.420846,37.777202],[-122.420836,37.777183],[-122.420826,37.777163],[-122.420816,37.777143],[-122.420806,37.777123],[-122.420796,37.777103],[-122.420786,37.777083],[-122.420776,37.777062],[-122.420766,37.777041],[-122.420756,37.77702],[-122.420746,37.776999],[-122.420736,37.776977],[-122.420726,37.776955],[-122.420716,37.776933],[-122.420706,37.776911],[-122.420696,37.776889],[-122.420686,37.776866],[-122.420676,37.776844],[-122.420666,37.776821],[-122.420656,37.776798],[-122.420646,37.776774],[-122.420636,37.776751],[-122.420626,37.776727],[-122.420616,37.776703],[-122.420606,37.776679],[-122.420596,37.776655],[-122.420586,37.77663],[-122.420576,37.776606],[-122.420566,37.776581],[-122.420556,37.776556],[-122.420546,37.776531],[-122.420536,37.776506],[-122.420526,37.77648],[-122.420516,37.776455],[-122.420506,37.776429],[-122.420496,37.776403],[-122.420486,37.776377],[-122.420476,37.776351],[-122.420466,37.776325],[-122.420456,37.776298],[-122.420446,37.776271],[-122.420436,37.776245],[-122.420426,37.776218],[-122.420416,37.776191],[-122.420406,37.776164],[-122.420395,37.776136],[-122.420385,37.776109],[-122.420375,37.776081],[-122.420365,37.776054],[-122.420355,37.776026],[-122.420345,37.775998],[-122.420335,37.77597],[-122.420325,37.775942],[-122.420315,37.775914],[-122.420305,37.775886],[-122.420295,37.775857],[-122.420285,37.775829],[-122.420275,37.7758],[-122.420265,37.775772],[-122.420255,37.775743],[-122.420245,37.775714],[-122.420235,37.775685],[-122.420225,37.775656],[-122.420215,37.775627],[-122.420205,37.775598],[-122.420195,37.775569],[-122.420185,37.775539],[-122.420175,37.77551],[-122.420165,37.775481],[-122.420155,37.775451],[-122.420145,37.775422],[-122.420135,37.775392],[-122.420125,37.775362],[-122.420115,37.775333],[-122.420105,37.775303],[-122.420095,37.775273],[-122.420085,37.775244],[-122.420075,37.775214],[-122.420065,37.775184],[-122.420055,37.775154],[-122.420045,37.775124],[-122.420035,37.775094],[-122.420025,37.775064],[-122.420015,37.775034],[-122.420005,37.775004],[-122.419995,37.774974],[-122.419985,37.774944],[-122.419975,37.774914],[-122.419965,37.774884],[-122.419955,37.774854],[-122.419945,37.774824],[-122.419935,37.774794],[-122.419925,37.774764],[-122.419915,37.774734],[-122.419905,37.774704],[-122.419895,37.774675],[-122.419885,37.774645],[-122.419875,37.774615],[-122.419865,37.774585],[-122.419855,37.774555],[-122.419845,37.774525],[-122.419835,37.774496],[-122.419825,37.774466],[-122.419815,37.774436],[-122.419805,37.774407],[-122.419795,37.774377],[-122.419785,37.774348],[-122.419775,37.774318],[-122.419765,37.774289],[-122.419755,37.774259],[-122.419745,37.77423],[-122.419735,37.774201],[-122.419725,37.774172],[-122.419715,37.774143],[-122.419705,37.774114],[-122.419695,37.774085],[-122.419685,37.774056],[-122.419675,37.774027],[-122.419665,37.773998],[-122.419655,37.77397],[-122.419645,37.773941],[-122.419635,37.773913],[-122.419625,37.773885],[-122.419615,37.773857],[-122.419605,37.773829],[-122.419595,37.773801],[-122.419585,37.773773],[-122.419575,37.773745],[-122.419565,37.773717],[-122.419555,37.77369],[-122.419545,37.773662],[-122.419535,37.773635],[-122.419525,37.773608],[-122.419515,37.773581],[-122.419505,37.773554],[-122.419495,37.773527],[-122.419485,37.773501],[-122.419475,37.773474],[-122.419465,37.773448],[-122.419455,37.773422],[-122.419445,37.773396],[-122.419435,37.77337],[-122.419425,37.773344],[-122.419415,37.773319],[-122.419405,37.773293],[-122.419395,37.773268],[-122.419385,37.773243],[-122.419375,37.773218],[-122.419365,37.773193],[-122.419355,37.773169],[-122.419345,37.773144],[-122.419335,37.77312],[-122.419325,37.773096],[-122.419315,37.773072],[-122.419305,37.773048],[-122.419295,37.773025],[-122.419285,37.773001],[-122.419275,37.772978],[-122.419265,37.772955],[-122.419255,37.772933],[-122.419245,37.77291],[-122.419235,37.772888],[-122.419225,37.772866],[-122.419215,37.772844],[-122.419205,37.772822],[-122.419195,37.7728],[-122.419185,37.772779],[-122.419175,37.772758],[-122.419165,37.772737],[-122.419155,37.772716],[-122.419145,37.772696],[-122.419135,37.772676],[-122.419125,37.772656],[-122.419115,37.772636],[-122.419105,37.772616],[-122.419095,37.772597],[-122.419085,37.772578],[-122.419075,37.772559],[-122.419065,37.77254],[-122.419055,37.772522],[-122.419045,37.772504],[-122.419035,37.772486],[-122.419025,37.772468],[-122.419015,37.772451],[-122.419005,37.772433],[-122.418995,37.772417],[-122.418985,37.7724],[-122.418975,37.772383],[-122.418965,37.772367],[-122.418955,37.772351],[-122.418945,37.772336],[-122.418935,37.77232],[-122.418925,37.772305],[-122.418915,37.77229],[-122.418905,37.772275],[-122.418895,37.772261],[-122.418885,37.772247],[-122.418875,37.772233],[-122.418865,37.772219],[-122.418855,37.772206],[-122.418845,37.772193],[-122.418835,37.77218],[-122.418825,37.772168],[-122.418815,37.772155],[-122.418805,37.772143],[-122.418795,37.772132],[-122.418785,37.77212],[-122.418775,37.772109],[-122.418765,37.772098],[-122.418755,37.772088],[-122.418745,37.772077],[-122.418735,37.772067],[-122.418725,37.772058],[-122.418715,37.772048],[-122.418705,37.772039],[-122.418695,37.77203],[-122.418685,37.772021],[-122.418675,37.772013],[-122.418665,37.772005],[-122.418655,37.771997],[-122.418645,37.77199],[-122.418635,37.771983],[-122.418625,37.771976],[-122.418615,37.771969],[-122.418605,37.771963],[-122.418595,37.771957],[-122.418585,37.771952],[-122.418575,37.771946],[-122.418565,37.771941],[-122.418555,37.771936],[-122.418545,37.771932],[-122.418535,37.771928],[-122.418525,37.771924],[-122.418515,37.77192],[-122.418505,37.771917],[-122.418495,37.771914],[-122.418485,37.771911],[-122.418475,37.771909],[-122.418465,37.771906],[-122.418455,37.771905],[-122.418445,37.771903],[-122.418435,37.771902],[-122.418425,37.771901],[-122.418415,37.7719],[-122.418405,37.7719],[-122.418394,37.7719],[-122.418384,37.7719],[-122.418374,37.771901],[-122.418364,37.771902],[-122.418354,37.771903],[-122.418344,37.771904],[-122.418334,37.771906],[-122.418324,37.771908],[-122.418314,37.771911],[-122.418304,37.771913],[-122.418294,37.771916],[-122.418284,37.77192],[-122.418274,37.771923],[-122.418264,37.771927],[-122.418254,37.771931],[-122.418244,37.771936],[-122.418234,37.77194],[-122.418224,37.771946],[-122.418214,37.771951],[-122.418204,37.771957],[-122.418194,37.771962],[-122.418184,37.771969],[-122.418174,37.771975],[-122.418164,37.771982],[-122.418154,37.771989],[-122.418144,37.771997],[-122.418134,37.772004],[-122.418124,37.772012],[-122.418114,37.772021],[-122.418104,37.772029],[-122.418094,37.772038],[-122.418084,37.772047],[-122.418074,37.772056],[-122.418064,37.772066],[-122.418054,37.772076],[-122.418044,37.772086],[-122.418034,37.772097],[-122.418024,37.772108],[-122.418014,37.772119],[-122.418004,37.77213],[-122.417994,37.772142],[-122.417984,37.772154],[-122.417974,37.772166],[-122.417964,37.772179],[-122.417954,37.772191],[-122.417944,37.772204],[-122.417934,37.772218],[-122.417924,37.772231],[-122.417914,37.772245],[-122.417904,37.772259],[-122.417894,37.772274],[-122.417884,37.772288],[-122.417874,37.772303],[-122.417864,37.772318],[-122.417854,37.772334],[-122.417844,37.772349],[-122.417834,37.772365],[-122.417824,37.772381],[-122.417814,37.772398],[-122.417804,37.772415],[-122.417794,37.772432],[-122.417784,37.772449],[-122.417774,37.772466],[-122.417764,37.772484],[-122.417754,37.772502],[-122.417744,37.77252],[-122.417734,37.772538],[-122.417724,37.772557],[-122.417714,37.772576],[-122.417704,37.772595],[-122.417694,37.772614],[-122.417684,37.772634],[-122.417674,37.772653],[-122.417664,37.772673],[-122.417654,37.772694],[-122.417644,37.772714],[-122.417634,37.772735],[-122.417624,37.772756],[-122.417614,37.772777],[-122.417604,37.772798],[-122.417594,37.772819],[-122.417584,37.772841],[-122.417574,37.772863],[-122.417564,37.772885],[-122.417554,37.772908],[-122.417544,37.77293],[-122.417534,37.772953],[-122.417524,37.772976],[-122.417514,37.772999],[-122.417504,37.773022],[-122.417494,37.773046],[-122.417484,37.773069],[-122.417474,37.773093],[-122.417464,37.773117],[-122.417454,37.773141],[-122.417444,37.773166],[-122.417434,37.77319],[-122.417424,37.773215],[-122.417414,37.77324],[-122.417404,37.773265],[-122.417394,37.77329],[-122.417384,37.773316],[-122.417374,37.773341],[-122.417364,37.773367],[-122.417354,37.773393],[-122.417344,37.773419],[-122.417334,37.773445],[-122.417324,37.773471],[-122.417314,37.773498],[-122.417304,37.773524],[-122.417294,37.773551],[-122.417284,37.773578],[-122.417274,37.773605],[-122.417264,37.773632],[-122.417254,37.773659],[-122.417244,37.773687],[-122.417234,37.773714],[-122.417224,37.773742],[-122.417214,37.77377],[-122.417204,37.773797],[-122.417194,37.773825],[-122.417184,37.773853],[-122.417174,37.773882],[-122.417164,37.77391],[-122.417154,37.773938],[-122.417144,37.773967],[-122.417134,37.773995],[-122.417124,37.774024],[-122.417114,37.774053],[-122.417104,37.774081],[-122.417094,37.77411],[-122.417084,37.774139],[-122.417074,37.774168],[-122.417064,37.774197],[-122.417054,37.774227],[-122.417044,37.774256],[-122.417034,37.774285],[-122.417024,37.774315],[-122.417014,37.774344],[-122.417004,37.774374],[-122.416994,37.774403],[-122.416984,37.774433],[-122.416974,37.774462],[-122.416964,37.774492],[-122.416954,37.774522],[-122.416944,37.774552],[-122.416934,37.774581],[-122.416924,37.774611],[-122.416914,37.774641],[-122.416904,37.774671],[-122.416894,37.774701],[-122.416884,37.774731],[-122.416874,37.774761],[-122.416864,37.774791],[-122.416854,37.774821],[-122.416844,37.774851],[-122.416834,37.774881],[-122.416824,37.774911],[-122.416814,37.774941],[-122.416804,37.774971],[-122.416794,37.775001],[-122.416784,37.775031],[-122.416774,37.775061],[-122.416764,37.775091],[-122.416754,37.775121],[-122.416744,37.775151],[-122.416734,37.77518],[-122.416724,37.77521],[-122.416714,37.77524],[-122.416704,37.77527],[-122.416694,37.7753],[-122.416684,37.775329],[-122.416674,37.775359],[-122.416664,37.775389],[-122.416654,37.775418],[-122.416644,37.775448],[-122.416634,37.775477],[-122.416624,37.775507],[-122.416614,37.775536],[-122.416604,37.775565],[-122.416594,37.775595],[-122.416584,37.775624],[-122.416574,37.775653],[-122.416564,37.775682],[-122.416554,37.775711],[-122.416544,37.77574],[-122.416534,37.775768],[-122.416524,37.775797],[-122.416514,37.775826],[-122.416504,37.775854],[-122.416494,37.775882],[-122.416484,37.775911],[-122.416474,37.775939],[-122.416464,37.775967],[-122.416454,37.775995],[-122.416444,37.776023],[-122.416434,37.776051],[-122.416424,37.776078],[-122.416414,37.776106],[-122.416404,37.776133],[-122.416393,37.776161],[-122.416383,37.776188],[-122.416373,37.776215],[-122.416363,37.776242],[-122.416353,37.776268],[-122.416343,37.776295],[-122.416333,37.776321],[-122.416323,37.776348],[-122.416313,37.776374],[-122.416303,37.7764],[-122.416293,37.776426],[-122.416283,37.776452],[-122.416273,37.776477],[-122.416263,37.776503],[-122.416253,37.776528],[-122.416243,37.776553],[-122.416233,37.776578],[-122.416223,37.776603],[-122.416213,37.776628],[-122.416203,37.776652],[-122.416193,37.776676],[-122.416183,37.7767],[-122.416173,37.776724],[-122.416163,37.776748],[-122.416153,37.776771],[-122.416143,37.776795],[-122.416133,37.776818],[-122.416123,37.776841],[-122.416113,37.776864],[-122.416103,37.776886],[-122.416093,37.776909],[-122.416083,37.776931],[-122.416073,37.776953],[-122.416063,37.776975],[-122.416053,37.776996],[-122.416043,37.777018],[-122.416033,37.777039],[-122.416023,37.77706],[-122.416013,37.77708],[-122.416003,37.777101],[-122.415993,37.777121],[-122.415983,37.777141],[-122.415973,37.777161],[-122.415963,37.777181],[-122.415953,37.7772],[-122.415943,37.777219],[-122.415933,37.777238],[-122.415923,37.777257],[-122.415913,37.777275],[-122.415903,37.777293],[-122.415893,37.777311],[-122.415883,37.777329],[-122.415873,37.777347],[-122.415863,37.777364],[-122.415853,37.777381],[-122.415843,37.777398],[-122.415833,37.777414],[-122.415823,37.77743],[-122.415813,37.777446],[-122.415803,37.777462],[-122.415793,37.777477],[-122.415783,37.777493],[-122.415773,37.777508],[-122.415763,37.777522],[-122.415753,37.777537],[-122.415743,37.777551],[-122.415733,37.777565],[-122.415723,37.777579],[-122.415713,37.777592],[-122.415703,37.777605],[-122.415693,37.777618],[-122.415683,37.77763],[-122.415673,37.777643],[-122.415663,37.777655],[-122.415653,37.777666],[-122.415643,37.777678],[-122.415633,37.777689],[-122.415623,37.7777],[-122.415613,37.777711],[-122.415603,37.777721],[-122.415593,37.777731],[-122.415583,37.777741],[-122.415573,37.77775],[-122.415563,37.77776],[-122.415553,37.777769],[-122.415543,37.777777],[-122.415533,37.777786],[-122.415523,37.777794],[-122.415513,37.777801],[-122.415503,37.777809],[-122.415493,37.777816],[-122.415483,37.777823],[-122.415473,37.77783],[-122.415463,37.777836],[-122.415453,37.777842],[-122.415443,37.777848],[-122.415433,37.777853],[-122.415423,37.777858],[-122.415413,37.777863],[-122.415403,37.777868],[-122.415393,37.777872],[-122.415383,37.777876],[-122.415373,37.777879],[-122.415363,37.777883],[-122.415353,37.777886],[-122.415343,37.777889],[-122.415333,37.777891],[-122.415323,37.777893],[-122.415313,37.777895],[-122.415303,37.777897],[-122.415293,37.777898],[-122.415283,37.777899],[-122.415273,37.7779],[-122.415263,37.7779],[-122.415253,37.7779],[-122.415243,37.7779],[-122.415233,37.777899],[-122.415223,37.777898],[-122.415213,37.777897],[-122.415203,37.777896],[-122.415193,37.777894],[-122.415183,37.777892],[-122.415173,37.77789],[-122.415163,37.777887],[-122.415153,37.777884],[-122.415143,37.777881],[-122.415133,37.777877],[-122.415123,37.777874],[-122.415113,37.777869],[-122.415103,37.777865],[-122.415093,37.77786],[-122.415083,37.777855],[-122.415073,37.77785],[-122.415063,37.777844],[-122.415053,37.777838],[-122.415043,37.777832],[-122.415033,37.777826],[-122.415023,37.777819],[-122.415013,37.777812],[-122.415003,37.777805],[-122.414993,37.777797],[-122.414983,37.777789],[-122.414973,37.777781],[-122.414963,37.777772],[-122.414953,37.777763],[-122.414943,37.777754],[-122.414933,37.777745],[-122.414923,37.777735],[-122.414913,37.777725],[-122.414903,37.777715],[-122.414893,37.777705],[-122.414883,37.777694],[-122.414873,37.777683],[-122.414863,37.777671],[-122.414853,37.77766],[-122.414843,37.777648],[-122.414833,37.777636],[-122.414823,37.777623],[-122.414813,37.777611],[-122.414803,37.777598],[-122.414793,37.777584],[-122.414783,37.777571],[-122.414773,37.777557],[-122.414763,37.777543],[-122.414753,37.777529],[-122.414743,37.777514],[-122.414733,37.777499],[-122.414723,37.777484],[-122.414713,37.777469],[-122.414703,37.777453],[-122.414693,37.777437],[-122.414683,37.777421],[-122.414673,37.777405],[-122.414663,37.777388],[-122.414653,37.777371],[-122.414643,37.777354],[-122.414633,37.777337],[-122.414623,37.777319],[-122.414613,37.777301],[-122.414603,37.777283],[-122.414593,37.777265],[-122.414583,37.777246],[-122.414573,37.777227],[-122.414563,37.777208],[-122.414553,37.777189],[-122.414543,37.77717],[-122.414533,37.77715],[-122.414523,37.77713],[-122.414513,37.77711],[-122.414503,37.777089],[-122.414493,37.777069],[-122.414483,37.777048],[-122.414473,37.777027],[-122.414463,37.777005],[-122.414453,37.776984],[-122.414443,37.776962],[-122.414433,37.77694],[-122.414423,37.776918],[-122.414413,37.776896],[-122.414403,37.776874],[-122.414392,37.776851],[-122.414382,37.776828],[-122.414372,37.776805],[-122.414362,37.776782],[-122.414352,37.776758],[-122.414342,37.776735],[-122.414332,37.776711],[-122.414322,37.776687],[-122.414312,37.776662],[-122.414302,37.776638],[-122.414292,37.776614],[-122.414282,37.776589],[-122.414272,37.776564],[-122.414262,37.776539],[-122.414252,37.776514],[-122.414242,37.776488],[-122.414232,37.776463],[-122.414222,37.776437],[-122.414212,37.776411],[-122.414202,37.776385],[-122.414192,37.776359],[-122.414182,37.776333],[-122.414172,37.776306],[-122.414162,37.77628],[-122.414152,37.776253],[-122.414142,37.776226],[-122.414132,37.776199],[-122.414122,37.776172],[-122.414112,37.776145],[-122.414102,37.776118],[-122.414092,37.77609],[-122.414082,37.776063],[-122.414072,37.776035],[-122.414062,37.776007],[-122.414052,37.775979],[-122.414042,37.775951],[-122.414032,37.775923],[-122.414022,37.775895],[-122.414012,37.775866],[-122.414002,37.775838],[-122.413992,37.775809],[-122.413982,37.775781],[-122.413972,37.775752],[-122.413962,37.775723],[-122.413952,37.775694],[-122.413942,37.775665],[-122.413932,37.775636],[-122.413922,37.775607],[-122.413912,37.775578],[-122.413902,37.775549],[-122.413892,37.775519],[-122.413882,37.77549],[-122.413872,37.775461],[-122.413862,37.775431],[-122.413852,37.775402],[-122.413842,37.775372],[-122.413832,37.775342],[-122.413822,37.775313],[-122.413812,37.775283],[-122.413802,37.775253],[-122.413792,37.775223],[-122.413782,37.775193],[-122.413772,37.775164],[-122.413762,37.775134],[-122.413752,37.775104],[-122.413742,37.775074],[-122.413732,37.775044],[-122.413722,37.775014],[-122.413712,37.774984],[-122.413702,37.774954],[-122.413692,37.774924],[-122.413682,37.774894],[-122.413672,37.774864],[-122.413662,37.774834],[-122.413652,37.774804],[-122.413642,37.774774],[-122.413632,37.774744],[-122.413622,37.774714],[-122.413612,37.774684],[-122.413602,37.774654],[-122.413592,37.774624],[-122.413582,37.774594],[-122.413572,37.774565],[-122.413562,37.774535],[-122.413552,37.774505],[-122.413542,37.774475],[-122.413532,37.774446],[-122.413522,37.774416],[-122.413512,37.774386],[-122.413502,37.774357],[-122.413492,37.774327],[-122.413482,37.774298],[-122.413472,37.774269],[-122.413462,37.774239],[-122.413452,37.77421],[-122.413442,37.774181],[-122.413432,37.774152],[-122.413422,37.774123],[-122.413412,37.774094],[-122.413402,37.774065],[-122.413392,37.774036],[-122.413382,37.774008],[-122.413372,37.773979],[-122.413362,37.773951],[-122.413352,37.773922],[-122.413342,37.773894],[-122.413332,37.773866],[-122.413322,37.773837],[-122.413312,37.773809],[-122.413302,37.773782],[-122.413292,37.773754],[-122.413282,37.773726],[-122.413272,37.773699],[-122.413262,37.773671],[-122.413252,37.773644],[-122.413242,37.773617],[-122.413232,37.77359],[-122.413222,37.773563],[-122.413212,37.773536],[-122.413202,37.773509],[-122.413192,37.773483],[-122.413182,37.773456],[-122.413172,37.77343],[-122.413162,37.773404],[-122.413152,37.773378],[-122.413142,37.773352],[-122.413132,37.773327],[-122.413122,37.773301],[-122.413112,37.773276],[-122.413102,37.773251],[-122.413092,37.773226],[-122.413082,37.773201],[-122.413072,37.773176],[-122.413062,37.773152],[-122.413052,37.773128],[-122.413042,37.773104],[-122.413032,37.77308],[-122.413022,37.773056],[-122.413012,37.773032],[-122.413002,37.773009],[-122.412992,37.772986],[-122.412982,37.772963],[-122.412972,37.77294],[-122.412962,37.772917],[-122.412952,37.772895],[-122.412942,37.772873],[-122.412932,37.772851],[-122.412922,37.772829],[-122.412912,37.772807],[-122.412902,37.772786],[-122.412892,37.772765],[-122.412882,37.772744],[-122.412872,37.772723],[-122.412862,37.772702],[-122.412852,37.772682],[-122.412842,37.772662],[-122.412832,37.772642],[-122.412822,37.772622],[-122.412812,37.772603],[-122.412802,37.772584],[-122.412792,37.772565],[-122.412782,37.772546],[-122.412772,37.772528],[-122.412762,37.772509],[-122.412752,37.772491],[-122.412742,37.772474],[-122.412732,37.772456],[-122.412722,37.772439],[-122.412712,37.772422],[-122.412702,37.772405],[-122.412692,37.772389],[-122.412682,37.772372],[-122.412672,37.772356],[-122.412662,37.77234],[-122.412652,37.772325],[-122.412642,37.77231],[-122.412632,37.772295],[-122.412622,37.77228],[-122.412612,37.772265],[-122.412602,37.772251],[-122.412592,37.772237],[-122.412582,37.772224],[-122.412572,37.77221],[-122.412562,37.772197],[-122.412552,37.772184],[-122.412542,37.772172],[-122.412532,37.772159],[-122.412522,37.772147],[-122.412512,37.772135],[-122.412502,37.772124],[-122.412492,37.772113],[-122.412482,37.772102],[-122.412472,37.772091],[-122.412462,37.772081],[-122.412452,37.77207],[-122.412442,37.772061],[-122.412432,37.772051],[-122.412422,37.772042],[-122.412412,37.772033],[-122.412402,37.772024],[-122.412391,37.772016],[-122.412381,37.772008],[-122.412371,37.772],[-122.412361,37.771992],[-122.412351,37.771985],[-122.412341,37.771978],[-122.412331,37.771971],[-122.412321,37.771965],[-122.412311,37.771959],[-122.412301,37.771953],[-122.412291,37.771948],[-122.412281,37.771943],[-122.412271,37.771938],[-122.412261,37.771933],[-122.412251,37.771929],[-122.412241,37.771925],[-122.412231,37.771921],[-122.412221,37.771918],[-122.412211,37.771915],[-122.412201,37.771912],[-122.412191,37.771909],[-122.412181,37.771907],[-122.412171,37.771905],[-122.412161,37.771904],[-122.412151,37.771902],[-122.412141,37.771901],[-122.412131,37.771901],[-122.412121,37.7719],[-122.412111,37.7719],[-122.412101,37.7719],[-122.412091,37.771901],[-122.412081,37.771901],[-122.412071,37.771903],[-122.412061,37.771904],[-122.412051,37.771906],[-122.412041,37.771908],[-122.412031,37.77191],[-122.412021,37.771912],[-122.412011,37.771915],[-122.412001,37.771919],[-122.411991,37.771922],[-122.411981,37.771926],[-122.411971,37.77193],[-122.411961,37.771934],[-122.411951,37.771939],[-122.411941,37.771944],[-122.411931,37.771949],[-122.411921,37.771955],[-122.411911,37.771961],[-122.411901,37.771967],[-122.411891,37.771973],[-122.411881,37.77198],[-122.411871,37.771987],[-122.411861,37.771994],[-122.411851,37.772002],[-122.411841,37.77201],[-122.411831,37.772018],[-122.411821,37.772026],[-122.411811,37.772035],[-122.411801,37.772044],[-122.411791,37.772053],[-122.411781,37.772063],[-122.411771,37.772073],[-122.411761,37.772083],[-122.411751,37.772094],[-122.411741,37.772104],[-122.411731,37.772115],[-122.411721,37.772127],[-122.411711,37.772138],[-122.411701,37.77215],[-122.411691,37.772162],[-122.411681,37.772175],[-122.411671,37.772187],[-122.411661,37.7722],[-122.411651,37.772213],[-122.411641,37.772227],[-122.411631,37.772241],[-122.411621,37.772255],[-122.411611,37.772269],[-122.411601,37.772284],[-122.411591,37.772298],[-122.411581,37.772313],[-122.411571,37.772329],[-122.411561,37.772344],[-122.411551,37.77236],[-122.411541,37.772376],[-122.411531,37.772393],[-122.411521,37.772409],[-122.411511,37.772426],[-122.411501,37.772443],[-122.411491,37.772461],[-122.411481,37.772478],[-122.411471,37.772496],[-122.411461,37.772514],[-122.411451,37.772532],[-122.411441,37.772551],[-122.411431,37.77257],[-122.411421,37.772589],[-122.411411,37.772608],[-122.411401,37.772627],[-122.411391,37.772647],[-122.411381,37.772667],[-122.411371,37.772687],[-122.411361,37.772707],[-122.411351,37.772728],[-122.411341,37.772749],[-122.411331,37.77277],[-122.411321,37.772791],[-122.411311,37.772813],[-122.411301,37.772834],[-122.411291,37.772856],[-122.411281,37.772878],[-122.411271,37.7729],[-122.411261,37.772923],[-122.411251,37.772946],[-122.411241,37.772968],[-122.411231,37.772991],[-122.411221,37.773015],[-122.411211,37.773038],[-122.411201,37.773062],[-122.411191,37.773086],[-122.411181,37.773109],[-122.411171,37.773134],[-122.411161,37.773158],[-122.411151,37.773182],[-122.411141,37.773207],[-122.411131,37.773232],[-122.411121,37.773257],[-122.411111,37.773282],[-122.411101,37.773308],[-122.411091,37.773333],[-122.411081,37.773359],[-122.411071,37.773385],[-122.411061,37.773411],[-122.411051,37.773437],[-122.411041,37.773463],[-122.411031,37.773489],[-122.411021,37.773516],[-122.411011,37.773543],[-122.411001,37.773569],[-122.410991,37.773596],[-122.410981,37.773623],[-122.410971,37.773651],[-122.410961,37.773678],[-122.410951,37.773705],[-122.410941,37.773733],[-122.410931,37.773761],[-122.410921,37.773788],[-122.410911,37.773816],[-122.410901,37.773844],[-122.410891,37.773873],[-122.410881,37.773901],[-122.410871,37.773929],[-122.410861,37.773958],[-122.410851,37.773986],[-122.410841,37.774015],[-122.410831,37.774043],[-122.410821,37.774072],[-122.410811,37.774101],[-122.410801,37.77413],[-122.410791,37.774159],[-122.410781,37.774188],[-122.410771,37.774217],[-122.410761,37.774247],[-122.410751,37.774276],[-122.410741,37.774305],[-122.410731,37.774335],[-122.410721,37.774364],[-122.410711,37.774394],[-122.410701,37.774423],[-122.410691,37.774453],[-122.410681,37.774483],[-122.410671,37.774512],[-122.410661,37.774542],[-122.410651,37.774572],[-122.410641,37.774602],[-122.410631,37.774632],[-122.410621,37.774662],[-122.410611,37.774692],[-122.410601,37.774721],[-122.410591,37.774751],[-122.410581,37.774781],[-122.410571,37.774811],[-122.410561,37.774841],[-122.410551,37.774871],[-122.410541,37.774901],[-122.410531,37.774931],[-122.410521,37.774961],[-122.410511,37.774991],[-122.410501,37.775021],[-122.410491,37.775051],[-122.410481,37.775081],[-122.410471,37.775111],[-122.410461,37.775141],[-122.410451,37.775171],[-122.410441,37.775201],[-122.410431,37.775231],[-122.410421,37.77526],[-122.410411,37.77529],[-122.410401,37.77532],[-122.41039,37.77535],[-122.41038,37.775379],[-122.41037,37.775409],[-122.41036,37.775438],[-122.41035,37.775468],[-122.41034,37.775497],[-122.41033,37.775527],[-122.41032,37.775556],[-122.41031,37.775585],[-122.4103,37.775614],[-122.41029,37.775644],[-122.41028,37.775673],[-122.41027,37.775701],[-122.41026,37.77573],[-122.41025,37.775759],[-122.41024,37.775788],[-122.41023,37.775816],[-122.41022,37.775845],[-122.41021,37.775873],[-122.4102,37.775902],[-122.41019,37.77593],[-122.41018,37.775958],[-122.41017,37.775986],[-122.41016,37.776014],[-122.41015,37.776042],[-122.41014,37.776069],[-122.41013,37.776097],[-122.41012,37.776124],[-122.41011,37.776152],[-122.4101,37.776179],[-122.41009,37.776206],[-122.41008,37.776233],[-122.41007,37.77626],[-122.41006,37.776287],[-122.41005,37.776313],[-122.41004,37.776339],[-122.41003,37.776366],[-122.41002,37.776392],[-122.41001,37.776418],[-122.41,37.776444],[-122.40999,37.776469],[-122.40998,37.776495],[-122.40997,37.77652],[-122.40996,37.776545],[-122.40995,37.77657],[-122.40994,37.776595],[-122.40993,37.77662],[-122.40992,37.776644],[-122.40991,37.776669],[-122.4099,37.776693],[-122.40989,37.776717],[-122.40988,37.77674],[-122.40987,37.776764],[-122.40986,37.776787],[-122.40985,37.776811],[-122.40984,37.776834],[-122.40983,37.776857],[-122.40982,37.776879],[-122.40981,37.776902],[-122.4098,37.776924],[-122.40979,37.776946],[-122.40978,37.776968],[-122.40977,37.776989],[-122.40976,37.777011],[-122.40975,37.777032],[-122.40974,37.777053],[-122.40973,37.777074],[-122.40972,37.777094],[-122.40971,37.777115],[-122.4097,37.777135],[-122.40969,37.777155],[-122.40968,37.777174],[-122.40967,37.777194],[-122.40966,37.777213],[-122.40965,37.777232],[-122.40964,37.777251],[-122.40963,37.777269],[-122.40962,37.777288],[-122.40961,37.777306],[-122.4096,37.777323],[-122.40959,37.777341],[-122.40958,37.777358],[-122.40957,37.777375],[-122.40956,37.777392],[-122.40955,37.777409],[-122.40954,37.777425],[-122.40953,37.777441],[-122.40952,37.777457],[-122.40951,37.777473],[-122.4095,37.777488],[-122.40949,37.777503],[-122.40948,37.777518],[-122.40947,37.777532],[-122.40946,37.777547],[-122.40945,37.77756],[-122.40944,37.777574],[-122.40943,37.777588],[-122.40942,37.777601],[-122.40941,37.777614],[-122.4094,37.777626]]}}]}
